{
  "type": "FeatureCollection",
  "provider": "enwl",
  "generatedAt": "2026-09-19T12:31:47.678Z",
  "stale": false,
  "features": [
    {
      "type": "Feature",
      "id": "enwl:current:inc-149001992",
      "geometry": {
        "type": "Point",
        "coordinates": [
          -3.187479,
          54.198116
        ]
      },
      "properties": {
        "providerId": "enwl",
        "provider": "Electricity North West",
        "feedIds": [
          "live"
        ],
        "reference": "INC 149001992",
        "category": "current",
        "status": "Team on their way",
        "type": "CurrentFault",
        "area": "Askam And Ireleth, Barrow-In-Furness",
        "areas": [
          "Askam And Ireleth, Barrow-In-Furness"
        ],
        "postcodes": [
          "LA16 7HA"
        ],
        "groupedLocations": [
          {
            "area": "LA16 7HA",
            "lat": 54.198112,
            "lon": -3.187487,
            "reference": "INC 149001992",
            "status": "Team on their way",
            "type": "CurrentFault"
          }
        ],
        "startedAt": null,
        "restoreAt": null,
        "restoreAtText": "We didn't know before your electricity went off that this was going to happen but now we know, rest assured we will get your power back on safely and as quickly as possible.",
        "updatedAt": null,
        "officialUrl": "https://www.enwl.co.uk/power-cuts",
        "locationQuality": "upstream_switch",
        "rawRecordCount": 1,
        "coordinateSpreadKm": 0
      }
    }
  ]
}
