{
  "type": "FeatureCollection",
  "provider": "nged",
  "generatedAt": "2026-09-19T12:31:47.678Z",
  "stale": false,
  "features": [
    {
      "type": "Feature",
      "id": "nged:current:incd-104174-l",
      "geometry": {
        "type": "Point",
        "coordinates": [
          -3.504535,
          50.91396
        ]
      },
      "properties": {
        "providerId": "nged",
        "provider": "National Grid ED",
        "feedIds": [
          "live"
        ],
        "reference": "INCD-104174-l",
        "category": "current",
        "status": "Awaiting",
        "type": "LV GENERIC",
        "area": "EX16 5QA, EX16 5QF, EX16 5QD, EX16 5QB, EX16 5QE, EX16 8FA",
        "areas": [
          "EX16 5QA, EX16 5QF, EX16 5QD, EX16 5QB, EX16 5QE, EX16 8FA"
        ],
        "postcodes": [
          "EX16 5QA",
          "EX16 5QF",
          "EX16 5QD",
          "EX16 5QB",
          "EX16 5QE",
          "EX16 8FA"
        ],
        "groupedLocations": [
          {
            "area": "EX16 5QA",
            "lat": 50.913522,
            "lon": -3.504452,
            "reference": "INCD-104174-l",
            "status": "Awaiting",
            "type": "LV GENERIC"
          },
          {
            "area": "EX16 5QF",
            "lat": 50.912751,
            "lon": -3.503545,
            "reference": "INCD-104174-l",
            "status": "Awaiting",
            "type": "LV GENERIC"
          },
          {
            "area": "EX16 5QD",
            "lat": 50.913833,
            "lon": -3.502655,
            "reference": "INCD-104174-l",
            "status": "Awaiting",
            "type": "LV GENERIC"
          },
          {
            "area": "EX16 5QB",
            "lat": 50.914237,
            "lon": -3.503365,
            "reference": "INCD-104174-l",
            "status": "Awaiting",
            "type": "LV GENERIC"
          },
          {
            "area": "EX16 5QE",
            "lat": 50.913357,
            "lon": -3.502597,
            "reference": "INCD-104174-l",
            "status": "Awaiting",
            "type": "LV GENERIC"
          },
          {
            "area": "EX16 8FA",
            "lat": 50.91433,
            "lon": -3.505246,
            "reference": "INCD-104174-l",
            "status": "Awaiting",
            "type": "LV GENERIC"
          }
        ],
        "startedAt": "2026-09-19T08:11:00.000Z",
        "restoreAt": null,
        "restoreAtText": "",
        "updatedAt": null,
        "officialUrl": "https://powercuts.nationalgrid.co.uk/power-cut-map",
        "locationQuality": "published_point",
        "rawRecordCount": 6,
        "coordinateSpreadKm": 0.134
      }
    },
    {
      "type": "Feature",
      "id": "nged:current:incd-104160-l",
      "geometry": {
        "type": "Point",
        "coordinates": [
          -3.371613,
          50.8873
        ]
      },
      "properties": {
        "providerId": "nged",
        "provider": "National Grid ED",
        "feedIds": [
          "live"
        ],
        "reference": "INCD-104160-l",
        "category": "current",
        "status": "In Progress",
        "type": "LV GENERIC",
        "area": "EX15 2SH",
        "areas": [
          "EX15 2SH"
        ],
        "postcodes": [
          "EX15 2SH"
        ],
        "groupedLocations": [
          {
            "area": "EX15 2SH",
            "lat": 50.886648,
            "lon": -3.374151,
            "reference": "INCD-104160-l",
            "status": "In Progress",
            "type": "LV GENERIC"
          }
        ],
        "startedAt": "2026-09-18T22:41:00.000Z",
        "restoreAt": null,
        "restoreAtText": "",
        "updatedAt": null,
        "officialUrl": "https://powercuts.nationalgrid.co.uk/power-cut-map",
        "locationQuality": "published_point",
        "rawRecordCount": 1,
        "coordinateSpreadKm": 0
      }
    },
    {
      "type": "Feature",
      "id": "nged:current:incd-74249-p",
      "geometry": {
        "type": "Point",
        "coordinates": [
          -2.507231,
          51.61221
        ]
      },
      "properties": {
        "providerId": "nged",
        "provider": "National Grid ED",
        "feedIds": [
          "live"
        ],
        "reference": "INCD-74249-p",
        "category": "current",
        "status": "Awaiting",
        "type": "LV GENERIC",
        "area": "BS35 1UL, BS35 1UH, BS35 1UJ",
        "areas": [
          "BS35 1UL, BS35 1UH, BS35 1UJ"
        ],
        "postcodes": [
          "BS35 1UL",
          "BS35 1UH",
          "BS35 1UJ"
        ],
        "groupedLocations": [
          {
            "area": "BS35 1UL",
            "lat": 51.61135,
            "lon": -2.50985,
            "reference": "INCD-74249-p",
            "status": "Awaiting",
            "type": "LV GENERIC"
          },
          {
            "area": "BS35 1UH",
            "lat": 51.613152,
            "lon": -2.509133,
            "reference": "INCD-74249-p",
            "status": "Awaiting",
            "type": "LV GENERIC"
          },
          {
            "area": "BS35 1UJ",
            "lat": 51.612511,
            "lon": -2.509588,
            "reference": "INCD-74249-p",
            "status": "Awaiting",
            "type": "LV GENERIC"
          }
        ],
        "startedAt": "2026-09-19T08:23:00.000Z",
        "restoreAt": null,
        "restoreAtText": "",
        "updatedAt": null,
        "officialUrl": "https://powercuts.nationalgrid.co.uk/power-cut-map",
        "locationQuality": "published_point",
        "rawRecordCount": 3,
        "coordinateSpreadKm": 0.112
      }
    },
    {
      "type": "Feature",
      "id": "nged:current:incd-364702-f",
      "geometry": {
        "type": "Point",
        "coordinates": [
          -2.246411,
          53.08083
        ]
      },
      "properties": {
        "providerId": "nged",
        "provider": "National Grid ED",
        "feedIds": [
          "live"
        ],
        "reference": "INCD-364702-f",
        "category": "current",
        "status": "In Progress",
        "type": "LV UNDERGROUND",
        "area": "ST7 1AP, ST7 1AW, ST7 1AR, ST7 1BQ, ST7 1BG, ST7 1AP, ST7 1AN",
        "areas": [
          "ST7 1AP, ST7 1AW, ST7 1AR, ST7 1BQ, ST7 1BG, ST7 1AP, ST7 1AN"
        ],
        "postcodes": [
          "ST7 1AP",
          "ST7 1AW",
          "ST7 1AR",
          "ST7 1BQ",
          "ST7 1BG",
          "ST7 1AN"
        ],
        "groupedLocations": [
          {
            "area": "ST7 1AP",
            "lat": 53.079916,
            "lon": -2.24654,
            "reference": "INCD-364702-f",
            "status": "In Progress",
            "type": "LV UNDERGROUND"
          },
          {
            "area": "ST7 1AW",
            "lat": 53.081117,
            "lon": -2.243919,
            "reference": "INCD-364702-f",
            "status": "In Progress",
            "type": "LV UNDERGROUND"
          },
          {
            "area": "ST7 1AR",
            "lat": 53.080018,
            "lon": -2.244853,
            "reference": "INCD-364702-f",
            "status": "In Progress",
            "type": "LV UNDERGROUND"
          },
          {
            "area": "ST7 1BQ",
            "lat": 53.080486,
            "lon": -2.248961,
            "reference": "INCD-364702-f",
            "status": "In Progress",
            "type": "LV UNDERGROUND"
          },
          {
            "area": "ST7 1BG",
            "lat": 53.080325,
            "lon": -2.248498,
            "reference": "INCD-364702-f",
            "status": "In Progress",
            "type": "LV UNDERGROUND"
          },
          {
            "area": "ST7 1AN",
            "lat": 53.081489,
            "lon": -2.246399,
            "reference": "INCD-364702-f",
            "status": "In Progress",
            "type": "LV UNDERGROUND"
          }
        ],
        "startedAt": "2026-09-18T22:51:00.000Z",
        "restoreAt": "2026-09-19T11:00:00.000Z",
        "restoreAtText": "",
        "updatedAt": null,
        "officialUrl": "https://powercuts.nationalgrid.co.uk/power-cut-map",
        "locationQuality": "published_point",
        "rawRecordCount": 6,
        "coordinateSpreadKm": 0.185
      }
    },
    {
      "type": "Feature",
      "id": "nged:current:incd-74237-p",
      "geometry": {
        "type": "Point",
        "coordinates": [
          -1.755111,
          51.98416
        ]
      },
      "properties": {
        "providerId": "nged",
        "provider": "National Grid ED",
        "feedIds": [
          "live"
        ],
        "reference": "INCD-74237-p",
        "category": "current",
        "status": "In Progress",
        "type": "HV GENERIC",
        "area": "GL56 9TE, GL56 9TB, GL56 9TG, GL56 9TF, GL56 9TD, GL56 9AE, GL56 9TB, GL56 9AN, GL56 9TE, GL56 9TG, GL56 9TF",
        "areas": [
          "GL56 9TE, GL56 9TB, GL56 9TG, GL56 9TF, GL56 9TD, GL56 9AE, GL56 9TB, GL56 9AN, GL56 9TE, GL56 9TG, GL56 9TF"
        ],
        "postcodes": [
          "GL56 9TE",
          "GL56 9TB",
          "GL56 9TG",
          "GL56 9TF",
          "GL56 9TD",
          "GL56 9AE",
          "GL56 9AN"
        ],
        "groupedLocations": [
          {
            "area": "GL56 9TE",
            "lat": 51.997003,
            "lon": -1.783564,
            "reference": "INCD-74237-p",
            "status": "In Progress",
            "type": "HV GENERIC"
          },
          {
            "area": "GL56 9TB",
            "lat": 51.982011,
            "lon": -1.767445,
            "reference": "INCD-74237-p",
            "status": "In Progress",
            "type": "HV GENERIC"
          },
          {
            "area": "GL56 9TG",
            "lat": 52.002631,
            "lon": -1.793603,
            "reference": "INCD-74237-p",
            "status": "In Progress",
            "type": "HV GENERIC"
          },
          {
            "area": "GL56 9TF",
            "lat": 51.993713,
            "lon": -1.789245,
            "reference": "INCD-74237-p",
            "status": "In Progress",
            "type": "HV GENERIC"
          },
          {
            "area": "GL56 9TD",
            "lat": 51.98578,
            "lon": -1.787069,
            "reference": "INCD-74237-p",
            "status": "In Progress",
            "type": "HV GENERIC"
          },
          {
            "area": "GL56 9AE",
            "lat": 51.990639,
            "lon": -1.743837,
            "reference": "INCD-74237-p",
            "status": "In Progress",
            "type": "HV GENERIC"
          },
          {
            "area": "GL56 9AN",
            "lat": 51.980333,
            "lon": -1.755398,
            "reference": "INCD-74237-p",
            "status": "In Progress",
            "type": "HV GENERIC"
          }
        ],
        "startedAt": "2026-09-19T03:19:00.000Z",
        "restoreAt": "2026-09-19T13:00:00.000Z",
        "restoreAtText": "",
        "updatedAt": null,
        "officialUrl": "https://powercuts.nationalgrid.co.uk/power-cut-map",
        "locationQuality": "published_point",
        "rawRecordCount": 7,
        "coordinateSpreadKm": 2.087
      }
    },
    {
      "type": "Feature",
      "id": "nged:current:incd-70670-m",
      "geometry": {
        "type": "Point",
        "coordinates": [
          -2.404916,
          51.64194
        ]
      },
      "properties": {
        "providerId": "nged",
        "provider": "National Grid ED",
        "feedIds": [
          "live"
        ],
        "reference": "INCD-70670-m",
        "category": "current",
        "status": "In Progress",
        "type": "EHV PLANT",
        "area": "GL12 8EY",
        "areas": [
          "GL12 8EY"
        ],
        "postcodes": [
          "GL12 8EY"
        ],
        "groupedLocations": [
          {
            "area": "GL12 8EY",
            "lat": 51.641502,
            "lon": -2.4078,
            "reference": "INCD-70670-m",
            "status": "In Progress",
            "type": "EHV PLANT"
          }
        ],
        "startedAt": "2026-07-30T15:26:00.000Z",
        "restoreAt": null,
        "restoreAtText": "",
        "updatedAt": null,
        "officialUrl": "https://powercuts.nationalgrid.co.uk/power-cut-map",
        "locationQuality": "published_point",
        "rawRecordCount": 1,
        "coordinateSpreadKm": 0
      }
    },
    {
      "type": "Feature",
      "id": "nged:current:incd-74246-p",
      "geometry": {
        "type": "Point",
        "coordinates": [
          -2.460955,
          51.53481
        ]
      },
      "properties": {
        "providerId": "nged",
        "provider": "National Grid ED",
        "feedIds": [
          "live"
        ],
        "reference": "INCD-74246-p",
        "category": "current",
        "status": "In Progress",
        "type": "HV GENERIC",
        "area": "BS36 2AP, BS37 9TW, BS36 2AQ, BS37 9US, BS37 9UT, BS36 2AX, BS36 2AH, BS36 2AB, BS37 9UQ, BS36 2BY, BS36 2DA, BS36 2GD, BS36 2AR, BS37 9TQ, BS37 9UG, BS36 2BP, BS36 2BT, BS36 2AE, BS36 2NS, BS36 2AJ, BS36 2AA, BS36 2AG, BS37 9UH, BS36 2BS, BS36 2BX, BS36 2AD, BS36 2DB, BS36 2BU, BS37 9UP, BS36 2AU, BS37 9TF, BS36 2AF, BS36 2BZ, BS36 2AL, BS36 2AT, BS37 9XZ, BS36 2AW, BS36 1RU, BS36 2DD, BS37 9TA, BS37 9UJ, BS37 9UZ, BS36 2GG, BS37 9TD, BS36 1RT, BS37 9TG, BS36 2BG, BS37 9XA, BS36 2AZ, BS36 2NU, BS36 2DW, BS36 2NT, BS37 9TB, BS36 2DQ, BS36 2BW, BS37 9UW, BS37 9TU, BS37 9TE, BS37 9UL, BS36 2FF, BS36 1RX, BS37 9UR, BS36 2DR, BS37 5JF, BS36 1TX, BS36 1AW, BS36 2NR, BS36 2AN, BS36 2BN, BS36 1RW, BS36 9UR, BS36 1QX, BS37 9UN, BS37 4HE, BS36 2BD",
        "areas": [
          "BS36 2AP, BS37 9TW, BS36 2AQ, BS37 9US, BS37 9UT, BS36 2AX, BS36 2AH, BS36 2AB, BS37 9UQ, BS36 2BY, BS36 2DA, BS36 2GD, BS36 2AR, BS37 9TQ, BS37 9UG, BS36 2BP, BS36 2BT, BS36 2AE, BS36 2NS, BS36 2AJ, BS36 2AA, BS36 2AG, BS37 9UH, BS36 2BS, BS36 2BX, BS36 2AD, BS36 2DB, BS36 2BU, BS37 9UP, BS36 2AU, BS37 9TF, BS36 2AF, BS36 2BZ, BS36 2AL, BS36 2AT, BS37 9XZ, BS36 2AW, BS36 1RU, BS36 2DD, BS37 9TA, BS37 9UJ, BS37 9UZ, BS36 2GG, BS37 9TD, BS36 1RT, BS37 9TG, BS36 2BG, BS37 9XA, BS36 2AZ, BS36 2NU, BS36 2DW, BS36 2NT, BS37 9TB, BS36 2DQ, BS36 2BW, BS37 9UW, BS37 9TU, BS37 9TE, BS37 9UL, BS36 2FF, BS36 1RX, BS37 9UR, BS36 2DR, BS37 5JF, BS36 1TX, BS36 1AW, BS36 2NR, BS36 2AN, BS36 2BN, BS36 1RW, BS36 9UR, BS36 1QX, BS37 9UN, BS37 4HE, BS36 2BD"
        ],
        "postcodes": [
          "BS36 2AP",
          "BS37 9TW",
          "BS36 2AQ",
          "BS37 9US",
          "BS37 9UT",
          "BS36 2AX",
          "BS36 2AH",
          "BS36 2AB",
          "BS37 9UQ",
          "BS36 2BY",
          "BS36 2DA",
          "BS36 2GD",
          "BS36 2AR",
          "BS37 9TQ",
          "BS37 9UG",
          "BS36 2BP",
          "BS36 2BT",
          "BS36 2AE",
          "BS36 2NS",
          "BS36 2AJ",
          "BS36 2AA",
          "BS36 2AG",
          "BS37 9UH",
          "BS36 2BS",
          "BS36 2BX",
          "BS36 2AD",
          "BS36 2DB",
          "BS36 2BU",
          "BS37 9UP",
          "BS36 2AU",
          "BS37 9TF",
          "BS36 2AF",
          "BS36 2BZ",
          "BS36 2AL",
          "BS36 2AT",
          "BS37 9XZ",
          "BS36 2AW",
          "BS36 1RU",
          "BS36 2DD",
          "BS37 9TA",
          "BS37 9UJ",
          "BS37 9UZ",
          "BS36 2GG",
          "BS37 9TD",
          "BS36 1RT",
          "BS37 9TG",
          "BS36 2BG",
          "BS37 9XA",
          "BS36 2AZ",
          "BS36 2NU",
          "BS36 2DW",
          "BS36 2NT",
          "BS37 9TB",
          "BS36 2DQ",
          "BS36 2BW",
          "BS37 9UW",
          "BS37 9TU",
          "BS37 9TE",
          "BS37 9UL",
          "BS36 2FF",
          "BS36 1RX",
          "BS37 9UR",
          "BS36 2DR",
          "BS37 5JF",
          "BS36 1TX",
          "BS36 1AW",
          "BS36 2NR",
          "BS36 2AN",
          "BS36 2BN",
          "BS36 1RW",
          "BS36 9UR",
          "BS36 1QX",
          "BS37 9UN",
          "BS37 4HE",
          "BS36 2BD"
        ],
        "groupedLocations": [
          {
            "area": "BS36 2AP",
            "lat": 51.544877,
            "lon": -2.481591,
            "reference": "INCD-74246-p",
            "status": "In Progress",
            "type": "HV GENERIC"
          },
          {
            "area": "BS37 9TW",
            "lat": 51.560081,
            "lon": -2.48406,
            "reference": "INCD-74246-p",
            "status": "In Progress",
            "type": "HV GENERIC"
          },
          {
            "area": "BS36 2AQ",
            "lat": 51.536471,
            "lon": -2.485799,
            "reference": "INCD-74246-p",
            "status": "In Progress",
            "type": "HV GENERIC"
          },
          {
            "area": "BS37 9US",
            "lat": 51.54721,
            "lon": -2.460431,
            "reference": "INCD-74246-p",
            "status": "In Progress",
            "type": "HV GENERIC"
          },
          {
            "area": "BS37 9UT",
            "lat": 51.546846,
            "lon": -2.459245,
            "reference": "INCD-74246-p",
            "status": "In Progress",
            "type": "HV GENERIC"
          },
          {
            "area": "BS36 2AX",
            "lat": 51.536117,
            "lon": -2.493033,
            "reference": "INCD-74246-p",
            "status": "In Progress",
            "type": "HV GENERIC"
          },
          {
            "area": "BS36 2AH",
            "lat": 51.536642,
            "lon": -2.487906,
            "reference": "INCD-74246-p",
            "status": "In Progress",
            "type": "HV GENERIC"
          },
          {
            "area": "BS36 2AB",
            "lat": 51.535621,
            "lon": -2.482517,
            "reference": "INCD-74246-p",
            "status": "In Progress",
            "type": "HV GENERIC"
          },
          {
            "area": "BS37 9UQ",
            "lat": 51.549688,
            "lon": -2.463802,
            "reference": "INCD-74246-p",
            "status": "In Progress",
            "type": "HV GENERIC"
          },
          {
            "area": "BS36 2BY",
            "lat": 51.535927,
            "lon": -2.491114,
            "reference": "INCD-74246-p",
            "status": "In Progress",
            "type": "HV GENERIC"
          },
          {
            "area": "BS36 2DA",
            "lat": 51.534408,
            "lon": -2.493217,
            "reference": "INCD-74246-p",
            "status": "In Progress",
            "type": "HV GENERIC"
          },
          {
            "area": "BS36 2GD",
            "lat": 51.535707,
            "lon": -2.496431,
            "reference": "INCD-74246-p",
            "status": "In Progress",
            "type": "HV GENERIC"
          },
          {
            "area": "BS36 2AR",
            "lat": 51.539205,
            "lon": -2.494278,
            "reference": "INCD-74246-p",
            "status": "In Progress",
            "type": "HV GENERIC"
          },
          {
            "area": "BS37 9TQ",
            "lat": 51.551411,
            "lon": -2.466718,
            "reference": "INCD-74246-p",
            "status": "In Progress",
            "type": "HV GENERIC"
          },
          {
            "area": "BS37 9UG",
            "lat": 51.550503,
            "lon": -2.46681,
            "reference": "INCD-74246-p",
            "status": "In Progress",
            "type": "HV GENERIC"
          },
          {
            "area": "BS36 2BP",
            "lat": 51.53429,
            "lon": -2.484752,
            "reference": "INCD-74246-p",
            "status": "In Progress",
            "type": "HV GENERIC"
          },
          {
            "area": "BS36 2BT",
            "lat": 51.53555,
            "lon": -2.486698,
            "reference": "INCD-74246-p",
            "status": "In Progress",
            "type": "HV GENERIC"
          },
          {
            "area": "BS36 2AE",
            "lat": 51.534967,
            "lon": -2.484139,
            "reference": "INCD-74246-p",
            "status": "In Progress",
            "type": "HV GENERIC"
          },
          {
            "area": "BS36 2NS",
            "lat": 51.535797,
            "lon": -2.449589,
            "reference": "INCD-74246-p",
            "status": "In Progress",
            "type": "HV GENERIC"
          },
          {
            "area": "BS36 2AJ",
            "lat": 51.536084,
            "lon": -2.490164,
            "reference": "INCD-74246-p",
            "status": "In Progress",
            "type": "HV GENERIC"
          },
          {
            "area": "BS36 2AA",
            "lat": 51.537192,
            "lon": -2.480962,
            "reference": "INCD-74246-p",
            "status": "In Progress",
            "type": "HV GENERIC"
          },
          {
            "area": "BS36 2AG",
            "lat": 51.535168,
            "lon": -2.483464,
            "reference": "INCD-74246-p",
            "status": "In Progress",
            "type": "HV GENERIC"
          },
          {
            "area": "BS37 9UH",
            "lat": 51.550003,
            "lon": -2.46369,
            "reference": "INCD-74246-p",
            "status": "In Progress",
            "type": "HV GENERIC"
          },
          {
            "area": "BS36 2BS",
            "lat": 51.533439,
            "lon": -2.486271,
            "reference": "INCD-74246-p",
            "status": "In Progress",
            "type": "HV GENERIC"
          },
          {
            "area": "BS36 2BX",
            "lat": 51.535326,
            "lon": -2.488569,
            "reference": "INCD-74246-p",
            "status": "In Progress",
            "type": "HV GENERIC"
          },
          {
            "area": "BS36 2AD",
            "lat": 51.53526,
            "lon": -2.484936,
            "reference": "INCD-74246-p",
            "status": "In Progress",
            "type": "HV GENERIC"
          },
          {
            "area": "BS36 2DB",
            "lat": 51.534661,
            "lon": -2.492787,
            "reference": "INCD-74246-p",
            "status": "In Progress",
            "type": "HV GENERIC"
          },
          {
            "area": "BS36 2BU",
            "lat": 51.535558,
            "lon": -2.489105,
            "reference": "INCD-74246-p",
            "status": "In Progress",
            "type": "HV GENERIC"
          },
          {
            "area": "BS37 9UP",
            "lat": 51.547595,
            "lon": -2.458546,
            "reference": "INCD-74246-p",
            "status": "In Progress",
            "type": "HV GENERIC"
          },
          {
            "area": "BS36 2AU",
            "lat": 51.535586,
            "lon": -2.49532,
            "reference": "INCD-74246-p",
            "status": "In Progress",
            "type": "HV GENERIC"
          },
          {
            "area": "BS37 9TF",
            "lat": 51.548146,
            "lon": -2.475886,
            "reference": "INCD-74246-p",
            "status": "In Progress",
            "type": "HV GENERIC"
          },
          {
            "area": "BS36 2AF",
            "lat": 51.534764,
            "lon": -2.4832,
            "reference": "INCD-74246-p",
            "status": "In Progress",
            "type": "HV GENERIC"
          },
          {
            "area": "BS36 2BZ",
            "lat": 51.535268,
            "lon": -2.491798,
            "reference": "INCD-74246-p",
            "status": "In Progress",
            "type": "HV GENERIC"
          },
          {
            "area": "BS36 2AL",
            "lat": 51.537146,
            "lon": -2.489843,
            "reference": "INCD-74246-p",
            "status": "In Progress",
            "type": "HV GENERIC"
          },
          {
            "area": "BS36 2AT",
            "lat": 51.542112,
            "lon": -2.497929,
            "reference": "INCD-74246-p",
            "status": "In Progress",
            "type": "HV GENERIC"
          },
          {
            "area": "BS37 9XZ",
            "lat": 51.549232,
            "lon": -2.458331,
            "reference": "INCD-74246-p",
            "status": "In Progress",
            "type": "HV GENERIC"
          },
          {
            "area": "BS36 2AW",
            "lat": 51.538967,
            "lon": -2.490844,
            "reference": "INCD-74246-p",
            "status": "In Progress",
            "type": "HV GENERIC"
          },
          {
            "area": "BS36 1RU",
            "lat": 51.548913,
            "lon": -2.513694,
            "reference": "INCD-74246-p",
            "status": "In Progress",
            "type": "HV GENERIC"
          },
          {
            "area": "BS36 2DD",
            "lat": 51.533864,
            "lon": -2.491985,
            "reference": "INCD-74246-p",
            "status": "In Progress",
            "type": "HV GENERIC"
          },
          {
            "area": "BS37 9TA",
            "lat": 51.548511,
            "lon": -2.467915,
            "reference": "INCD-74246-p",
            "status": "In Progress",
            "type": "HV GENERIC"
          },
          {
            "area": "BS37 9UJ",
            "lat": 51.550686,
            "lon": -2.465846,
            "reference": "INCD-74246-p",
            "status": "In Progress",
            "type": "HV GENERIC"
          },
          {
            "area": "BS37 9UZ",
            "lat": 51.549762,
            "lon": -2.460889,
            "reference": "INCD-74246-p",
            "status": "In Progress",
            "type": "HV GENERIC"
          },
          {
            "area": "BS37 9TD",
            "lat": 51.545458,
            "lon": -2.46921,
            "reference": "INCD-74246-p",
            "status": "In Progress",
            "type": "HV GENERIC"
          },
          {
            "area": "BS36 1RT",
            "lat": 51.543756,
            "lon": -2.514862,
            "reference": "INCD-74246-p",
            "status": "In Progress",
            "type": "HV GENERIC"
          },
          {
            "area": "BS37 9TG",
            "lat": 51.548186,
            "lon": -2.48167,
            "reference": "INCD-74246-p",
            "status": "In Progress",
            "type": "HV GENERIC"
          },
          {
            "area": "BS36 2BG",
            "lat": 51.534892,
            "lon": -2.489242,
            "reference": "INCD-74246-p",
            "status": "In Progress",
            "type": "HV GENERIC"
          },
          {
            "area": "BS37 9XA",
            "lat": 51.55256,
            "lon": -2.458062,
            "reference": "INCD-74246-p",
            "status": "In Progress",
            "type": "HV GENERIC"
          },
          {
            "area": "BS36 2AZ",
            "lat": 51.537032,
            "lon": -2.489323,
            "reference": "INCD-74246-p",
            "status": "In Progress",
            "type": "HV GENERIC"
          },
          {
            "area": "BS36 2NU",
            "lat": 51.536955,
            "lon": -2.452296,
            "reference": "INCD-74246-p",
            "status": "In Progress",
            "type": "HV GENERIC"
          },
          {
            "area": "BS36 2DW",
            "lat": 51.531859,
            "lon": -2.489888,
            "reference": "INCD-74246-p",
            "status": "In Progress",
            "type": "HV GENERIC"
          },
          {
            "area": "BS36 2NT",
            "lat": 51.53615,
            "lon": -2.456051,
            "reference": "INCD-74246-p",
            "status": "In Progress",
            "type": "HV GENERIC"
          },
          {
            "area": "BS37 9TB",
            "lat": 51.546046,
            "lon": -2.468351,
            "reference": "INCD-74246-p",
            "status": "In Progress",
            "type": "HV GENERIC"
          },
          {
            "area": "BS36 2DQ",
            "lat": 51.534022,
            "lon": -2.492938,
            "reference": "INCD-74246-p",
            "status": "In Progress",
            "type": "HV GENERIC"
          },
          {
            "area": "BS36 2BW",
            "lat": 51.540022,
            "lon": -2.494388,
            "reference": "INCD-74246-p",
            "status": "In Progress",
            "type": "HV GENERIC"
          },
          {
            "area": "BS37 9UW",
            "lat": 51.548892,
            "lon": -2.460318,
            "reference": "INCD-74246-p",
            "status": "In Progress",
            "type": "HV GENERIC"
          },
          {
            "area": "BS37 9TU",
            "lat": 51.551597,
            "lon": -2.493749,
            "reference": "INCD-74246-p",
            "status": "In Progress",
            "type": "HV GENERIC"
          },
          {
            "area": "BS37 9TE",
            "lat": 51.547661,
            "lon": -2.471468,
            "reference": "INCD-74246-p",
            "status": "In Progress",
            "type": "HV GENERIC"
          },
          {
            "area": "BS37 9UL",
            "lat": 51.549051,
            "lon": -2.460925,
            "reference": "INCD-74246-p",
            "status": "In Progress",
            "type": "HV GENERIC"
          },
          {
            "area": "BS36 2FF",
            "lat": 51.53648,
            "lon": -2.454411,
            "reference": "INCD-74246-p",
            "status": "In Progress",
            "type": "HV GENERIC"
          },
          {
            "area": "BS36 1RX",
            "lat": 51.535177,
            "lon": -2.523199,
            "reference": "INCD-74246-p",
            "status": "In Progress",
            "type": "HV GENERIC"
          },
          {
            "area": "BS37 9UR",
            "lat": 51.546365,
            "lon": -2.453399,
            "reference": "INCD-74246-p",
            "status": "In Progress",
            "type": "HV GENERIC"
          },
          {
            "area": "BS36 2DR",
            "lat": 51.534135,
            "lon": -2.493805,
            "reference": "INCD-74246-p",
            "status": "In Progress",
            "type": "HV GENERIC"
          },
          {
            "area": "BS37 5JF",
            "lat": 51.538845,
            "lon": -2.444875,
            "reference": "INCD-74246-p",
            "status": "In Progress",
            "type": "HV GENERIC"
          },
          {
            "area": "BS36 1AW",
            "lat": 51.515755,
            "lon": -2.485435,
            "reference": "INCD-74246-p",
            "status": "In Progress",
            "type": "HV GENERIC"
          },
          {
            "area": "BS36 2NR",
            "lat": 51.533124,
            "lon": -2.459596,
            "reference": "INCD-74246-p",
            "status": "In Progress",
            "type": "HV GENERIC"
          },
          {
            "area": "BS36 2AN",
            "lat": 51.537631,
            "lon": -2.490036,
            "reference": "INCD-74246-p",
            "status": "In Progress",
            "type": "HV GENERIC"
          },
          {
            "area": "BS36 2BN",
            "lat": 51.532682,
            "lon": -2.482342,
            "reference": "INCD-74246-p",
            "status": "In Progress",
            "type": "HV GENERIC"
          },
          {
            "area": "BS36 1RW",
            "lat": 51.534073,
            "lon": -2.516584,
            "reference": "INCD-74246-p",
            "status": "In Progress",
            "type": "HV GENERIC"
          },
          {
            "area": "BS36 1QX",
            "lat": 51.531171,
            "lon": -2.490976,
            "reference": "INCD-74246-p",
            "status": "In Progress",
            "type": "HV GENERIC"
          },
          {
            "area": "BS37 9UN",
            "lat": 51.549252,
            "lon": -2.460192,
            "reference": "INCD-74246-p",
            "status": "In Progress",
            "type": "HV GENERIC"
          },
          {
            "area": "BS37 4HE",
            "lat": 51.532623,
            "lon": -2.415346,
            "reference": "INCD-74246-p",
            "status": "In Progress",
            "type": "HV GENERIC"
          },
          {
            "area": "BS36 2BD",
            "lat": 51.534268,
            "lon": -2.479144,
            "reference": "INCD-74246-p",
            "status": "In Progress",
            "type": "HV GENERIC"
          }
        ],
        "startedAt": "2026-09-19T07:41:00.000Z",
        "restoreAt": "2026-09-19T09:30:00.000Z",
        "restoreAtText": "",
        "updatedAt": null,
        "officialUrl": "https://powercuts.nationalgrid.co.uk/power-cut-map",
        "locationQuality": "published_point",
        "rawRecordCount": 72,
        "coordinateSpreadKm": 4.499
      }
    },
    {
      "type": "Feature",
      "id": "nged:current:incd-74159-p",
      "geometry": {
        "type": "Point",
        "coordinates": [
          -2.307764,
          52.38517
        ]
      },
      "properties": {
        "providerId": "nged",
        "provider": "National Grid ED",
        "feedIds": [
          "live"
        ],
        "reference": "INCD-74159-p",
        "category": "current",
        "status": "In Progress",
        "type": "HV OVERHEAD",
        "area": "DY12 1PN, DY12 1AT, DY12 1AA, DY12 1AS, DY12 1AN",
        "areas": [
          "DY12 1PN, DY12 1AT, DY12 1AA, DY12 1AS, DY12 1AN"
        ],
        "postcodes": [
          "DY12 1PN",
          "DY12 1AT",
          "DY12 1AA",
          "DY12 1AS",
          "DY12 1AN"
        ],
        "groupedLocations": [
          {
            "area": "DY12 1PN",
            "lat": 52.404899,
            "lon": -2.332578,
            "reference": "INCD-74159-p",
            "status": "In Progress",
            "type": "HV OVERHEAD"
          },
          {
            "area": "DY12 1AT",
            "lat": 52.397051,
            "lon": -2.326259,
            "reference": "INCD-74159-p",
            "status": "In Progress",
            "type": "HV OVERHEAD"
          },
          {
            "area": "DY12 1AA",
            "lat": 52.395598,
            "lon": -2.32156,
            "reference": "INCD-74159-p",
            "status": "In Progress",
            "type": "HV OVERHEAD"
          },
          {
            "area": "DY12 1AS",
            "lat": 52.396494,
            "lon": -2.329164,
            "reference": "INCD-74159-p",
            "status": "In Progress",
            "type": "HV OVERHEAD"
          },
          {
            "area": "DY12 1AN",
            "lat": 52.380134,
            "lon": -2.315424,
            "reference": "INCD-74159-p",
            "status": "In Progress",
            "type": "HV OVERHEAD"
          }
        ],
        "startedAt": "2026-09-18T13:45:00.000Z",
        "restoreAt": "2026-09-19T16:00:00.000Z",
        "restoreAtText": "",
        "updatedAt": null,
        "officialUrl": "https://powercuts.nationalgrid.co.uk/power-cut-map",
        "locationQuality": "published_point",
        "rawRecordCount": 5,
        "coordinateSpreadKm": 1.759
      }
    },
    {
      "type": "Feature",
      "id": "nged:current:incd-13327-n",
      "geometry": {
        "type": "Point",
        "coordinates": [
          -0.1790644,
          52.87058
        ]
      },
      "properties": {
        "providerId": "nged",
        "provider": "National Grid ED",
        "feedIds": [
          "live"
        ],
        "reference": "INCD-13327-n",
        "category": "current",
        "status": "In Progress",
        "type": "LV GENERIC",
        "area": "PE11 4LJ",
        "areas": [
          "PE11 4LJ"
        ],
        "postcodes": [
          "PE11 4LJ"
        ],
        "groupedLocations": [
          {
            "area": "PE11 4LJ",
            "lat": 52.870474,
            "lon": -0.180338,
            "reference": "INCD-13327-n",
            "status": "In Progress",
            "type": "LV GENERIC"
          }
        ],
        "startedAt": "2026-09-19T04:52:00.000Z",
        "restoreAt": null,
        "restoreAtText": "",
        "updatedAt": null,
        "officialUrl": "https://powercuts.nationalgrid.co.uk/power-cut-map",
        "locationQuality": "published_point",
        "rawRecordCount": 1,
        "coordinateSpreadKm": 0
      }
    },
    {
      "type": "Feature",
      "id": "nged:current:incd-13329-n",
      "geometry": {
        "type": "Point",
        "coordinates": [
          -1.248369,
          52.36781
        ]
      },
      "properties": {
        "providerId": "nged",
        "provider": "National Grid ED",
        "feedIds": [
          "live"
        ],
        "reference": "INCD-13329-n",
        "category": "current",
        "status": "In Progress",
        "type": "LV UNDERGROUND",
        "area": "CV22 5AY, CV22 5LN, CV22 5AY, CV22 5LR, CV22 5LP",
        "areas": [
          "CV22 5AY, CV22 5LN, CV22 5AY, CV22 5LR, CV22 5LP"
        ],
        "postcodes": [
          "CV22 5AY",
          "CV22 5LN",
          "CV22 5LR",
          "CV22 5LP"
        ],
        "groupedLocations": [
          {
            "area": "CV22 5AY",
            "lat": 52.367258,
            "lon": -1.248631,
            "reference": "INCD-13329-n",
            "status": "In Progress",
            "type": "LV UNDERGROUND"
          },
          {
            "area": "CV22 5LN",
            "lat": 52.365644,
            "lon": -1.248012,
            "reference": "INCD-13329-n",
            "status": "In Progress",
            "type": "LV UNDERGROUND"
          },
          {
            "area": "CV22 5LR",
            "lat": 52.366424,
            "lon": -1.249041,
            "reference": "INCD-13329-n",
            "status": "In Progress",
            "type": "LV UNDERGROUND"
          },
          {
            "area": "CV22 5LP",
            "lat": 52.367264,
            "lon": -1.249629,
            "reference": "INCD-13329-n",
            "status": "In Progress",
            "type": "LV UNDERGROUND"
          }
        ],
        "startedAt": "2026-09-19T04:58:00.000Z",
        "restoreAt": null,
        "restoreAtText": "",
        "updatedAt": null,
        "officialUrl": "https://powercuts.nationalgrid.co.uk/power-cut-map",
        "locationQuality": "published_point",
        "rawRecordCount": 4,
        "coordinateSpreadKm": 0.125
      }
    }
  ]
}
