{
  "type": "FeatureCollection",
  "provider": "nie",
  "generatedAt": "2026-09-19T12:31:47.678Z",
  "stale": false,
  "features": [
    {
      "type": "Feature",
      "id": "nie:current:5934695",
      "geometry": {
        "type": "Point",
        "coordinates": [
          -6.220634798443251,
          54.180535985774476
        ]
      },
      "properties": {
        "providerId": "nie",
        "provider": "NIE Networks",
        "feedIds": [
          "live"
        ],
        "reference": "5934695",
        "category": "current",
        "status": "A repair team has been assigned and will be on its way as soon as possible.",
        "type": "Fault",
        "area": "BT34 2",
        "areas": [
          "BT34 2"
        ],
        "postcodes": [],
        "groupedLocations": [
          {
            "area": "BT34 2",
            "lat": 54.180535985774476,
            "lon": -6.220634798443251,
            "reference": "5934695",
            "status": "A repair team has been assigned and will be on its way as soon as possible.",
            "type": "Fault"
          }
        ],
        "startedAt": "2026-09-19T11:18:00.000Z",
        "restoreAt": null,
        "restoreAtText": "Not available - Update to follow",
        "updatedAt": "2026-09-19T13:30:00.000Z",
        "officialUrl": "https://powercheck.nienetworks.co.uk/",
        "locationQuality": "approximate_area",
        "rawRecordCount": 1,
        "coordinateSpreadKm": 0
      }
    },
    {
      "type": "Feature",
      "id": "nie:planned:5934712",
      "geometry": {
        "type": "Point",
        "coordinates": [
          -5.700804265009163,
          54.79678928293204
        ]
      },
      "properties": {
        "providerId": "nie",
        "provider": "NIE Networks",
        "feedIds": [
          "live"
        ],
        "reference": "5934712",
        "category": "planned",
        "status": "The repair team is on its way.",
        "type": "Fault",
        "area": "BT40 3",
        "areas": [
          "BT40 3"
        ],
        "postcodes": [],
        "groupedLocations": [
          {
            "area": "BT40 3",
            "lat": 54.79678928293204,
            "lon": -5.700804265009163,
            "reference": "5934712",
            "status": "The repair team is on its way.",
            "type": "Fault"
          }
        ],
        "startedAt": "2026-09-19T12:51:00.000Z",
        "restoreAt": "2026-09-19T16:00:00.000Z",
        "restoreAtText": "",
        "updatedAt": "2026-09-19T13:30:00.000Z",
        "officialUrl": "https://powercheck.nienetworks.co.uk/",
        "locationQuality": "approximate_area",
        "rawRecordCount": 1,
        "coordinateSpreadKm": 0
      }
    }
  ]
}
