{
  "type": "FeatureCollection",
  "provider": "npg",
  "generatedAt": "2026-09-19T12:31:47.678Z",
  "stale": false,
  "features": [
    {
      "type": "Feature",
      "id": "npg:current:incd-815749-a",
      "geometry": {
        "type": "Point",
        "coordinates": [
          -0.9967736451612903,
          53.620770967741926
        ]
      },
      "properties": {
        "providerId": "npg",
        "provider": "Northern Powergrid",
        "feedIds": [
          "live"
        ],
        "reference": "INCD-815749-A",
        "category": "current",
        "status": "6",
        "type": "HV_N",
        "area": "Yorkshire",
        "areas": [
          "Yorkshire"
        ],
        "postcodes": [
          "DN7 5LJ",
          "DN7 5GH",
          "DN8 4JE",
          "DN7 5JU",
          "DN8 4JT",
          "DN8 4JQ",
          "DN7 5LF",
          "DN7 5LH",
          "DN8 4JN",
          "DN7 5LA",
          "DN8 4HY",
          "DN7 5JT",
          "DN7 5LG",
          "DN7 5LU",
          "DN8 4JW",
          "DN7 5JZ",
          "DN8 4JG",
          "DN8 4JS",
          "DN8 4SR",
          "DN7 5LE",
          "DN8 4JH",
          "DN7 5JX",
          "DN7 5LQ",
          "DN7 5LD",
          "DN7 5JY",
          "DN8 4HT",
          "DN7 5LB",
          "DN7 5JR",
          "DN8 4JL",
          "DN8 4JD",
          "DN8 4JJ"
        ],
        "groupedLocations": [
          {
            "area": "Yorkshire",
            "lat": 53.6224,
            "lon": -1.03007,
            "reference": "INCD-815749-A",
            "status": "6",
            "type": "HV_N"
          },
          {
            "area": "DN7 5GH",
            "lat": 53.620772,
            "lon": -1.014977,
            "reference": "INCD-815749-A",
            "status": "6",
            "type": "HV_N"
          },
          {
            "area": "DN8 4JE",
            "lat": 53.617554,
            "lon": -0.97428,
            "reference": "INCD-815749-A",
            "status": "6",
            "type": "HV_N"
          },
          {
            "area": "DN7 5JU",
            "lat": 53.613141,
            "lon": -1.009547,
            "reference": "INCD-815749-A",
            "status": "6",
            "type": "HV_N"
          },
          {
            "area": "DN8 4JT",
            "lat": 53.635558,
            "lon": -0.970017,
            "reference": "INCD-815749-A",
            "status": "6",
            "type": "HV_N"
          },
          {
            "area": "DN8 4JQ",
            "lat": 53.617969,
            "lon": -0.981784,
            "reference": "INCD-815749-A",
            "status": "6",
            "type": "HV_N"
          },
          {
            "area": "DN7 5LF",
            "lat": 53.621782,
            "lon": -1.014273,
            "reference": "INCD-815749-A",
            "status": "6",
            "type": "HV_N"
          },
          {
            "area": "DN7 5LH",
            "lat": 53.613115,
            "lon": -1.017302,
            "reference": "INCD-815749-A",
            "status": "6",
            "type": "HV_N"
          },
          {
            "area": "DN8 4JN",
            "lat": 53.622754,
            "lon": -0.990604,
            "reference": "INCD-815749-A",
            "status": "6",
            "type": "HV_N"
          },
          {
            "area": "DN7 5LA",
            "lat": 53.61408,
            "lon": -1.012216,
            "reference": "INCD-815749-A",
            "status": "6",
            "type": "HV_N"
          },
          {
            "area": "DN8 4HY",
            "lat": 53.615277,
            "lon": -0.984479,
            "reference": "INCD-815749-A",
            "status": "6",
            "type": "HV_N"
          },
          {
            "area": "DN7 5JT",
            "lat": 53.613382,
            "lon": -1.011537,
            "reference": "INCD-815749-A",
            "status": "6",
            "type": "HV_N"
          },
          {
            "area": "DN7 5LG",
            "lat": 53.624712,
            "lon": -1.006615,
            "reference": "INCD-815749-A",
            "status": "6",
            "type": "HV_N"
          },
          {
            "area": "DN7 5LU",
            "lat": 53.625484,
            "lon": -1.002136,
            "reference": "INCD-815749-A",
            "status": "6",
            "type": "HV_N"
          },
          {
            "area": "DN8 4JW",
            "lat": 53.627644,
            "lon": -0.981127,
            "reference": "INCD-815749-A",
            "status": "6",
            "type": "HV_N"
          },
          {
            "area": "DN7 5JZ",
            "lat": 53.615325,
            "lon": -1.005142,
            "reference": "INCD-815749-A",
            "status": "6",
            "type": "HV_N"
          },
          {
            "area": "DN8 4JG",
            "lat": 53.618593,
            "lon": -0.980181,
            "reference": "INCD-815749-A",
            "status": "6",
            "type": "HV_N"
          },
          {
            "area": "DN8 4JS",
            "lat": 53.632692,
            "lon": -0.976544,
            "reference": "INCD-815749-A",
            "status": "6",
            "type": "HV_N"
          },
          {
            "area": "DN8 4SR",
            "lat": 53.629243,
            "lon": -0.964213,
            "reference": "INCD-815749-A",
            "status": "6",
            "type": "HV_N"
          },
          {
            "area": "DN7 5LE",
            "lat": 53.627248,
            "lon": -1.018712,
            "reference": "INCD-815749-A",
            "status": "6",
            "type": "HV_N"
          },
          {
            "area": "DN8 4JH",
            "lat": 53.619715,
            "lon": -0.981061,
            "reference": "INCD-815749-A",
            "status": "6",
            "type": "HV_N"
          },
          {
            "area": "DN7 5JX",
            "lat": 53.613423,
            "lon": -1.007787,
            "reference": "INCD-815749-A",
            "status": "6",
            "type": "HV_N"
          },
          {
            "area": "DN7 5LQ",
            "lat": 53.626946,
            "lon": -1.018084,
            "reference": "INCD-815749-A",
            "status": "6",
            "type": "HV_N"
          },
          {
            "area": "DN7 5LD",
            "lat": 53.619842,
            "lon": -1.013366,
            "reference": "INCD-815749-A",
            "status": "6",
            "type": "HV_N"
          },
          {
            "area": "DN7 5JY",
            "lat": 53.613904,
            "lon": -1.007247,
            "reference": "INCD-815749-A",
            "status": "6",
            "type": "HV_N"
          },
          {
            "area": "DN8 4HT",
            "lat": 53.626659,
            "lon": -0.965834,
            "reference": "INCD-815749-A",
            "status": "6",
            "type": "HV_N"
          },
          {
            "area": "DN7 5LB",
            "lat": 53.615748,
            "lon": -1.012872,
            "reference": "INCD-815749-A",
            "status": "6",
            "type": "HV_N"
          },
          {
            "area": "DN7 5JR",
            "lat": 53.611638,
            "lon": -1.011426,
            "reference": "INCD-815749-A",
            "status": "6",
            "type": "HV_N"
          },
          {
            "area": "DN8 4JL",
            "lat": 53.623192,
            "lon": -0.973403,
            "reference": "INCD-815749-A",
            "status": "6",
            "type": "HV_N"
          },
          {
            "area": "DN8 4JD",
            "lat": 53.626667,
            "lon": -0.981408,
            "reference": "INCD-815749-A",
            "status": "6",
            "type": "HV_N"
          },
          {
            "area": "DN8 4JJ",
            "lat": 53.620612,
            "lon": -0.980768,
            "reference": "INCD-815749-A",
            "status": "6",
            "type": "HV_N"
          }
        ],
        "startedAt": "2026-09-19T11:35:00.000Z",
        "restoreAt": "2026-09-19T13:05:00.000Z",
        "restoreAtText": "",
        "updatedAt": "2026-09-19T12:00:28.000Z",
        "officialUrl": "https://www.northernpowergrid.com/power-cuts-map",
        "locationQuality": "centralised_area",
        "rawRecordCount": 31,
        "coordinateSpreadKm": 2.402
      }
    },
    {
      "type": "Feature",
      "id": "npg:current:incd-815748-a",
      "geometry": {
        "type": "Point",
        "coordinates": [
          -1.541464,
          53.83543999999999
        ]
      },
      "properties": {
        "providerId": "npg",
        "provider": "Northern Powergrid",
        "feedIds": [
          "live"
        ],
        "reference": "INCD-815748-A",
        "category": "current",
        "status": "6",
        "type": "LV",
        "area": "Yorkshire",
        "areas": [
          "Yorkshire"
        ],
        "postcodes": [
          "LS7 3PR",
          "LS17 5NT",
          "LS7 3PP",
          "LS17 5NU",
          "LS17 5NS"
        ],
        "groupedLocations": [
          {
            "area": "LS7 3PR",
            "lat": 53.834874,
            "lon": -1.541029,
            "reference": "INCD-815748-A",
            "status": "6",
            "type": "LV"
          },
          {
            "area": "LS17 5NT",
            "lat": 53.836572,
            "lon": -1.540722,
            "reference": "INCD-815748-A",
            "status": "6",
            "type": "LV"
          },
          {
            "area": "LS7 3PP",
            "lat": 53.833869,
            "lon": -1.54145,
            "reference": "INCD-815748-A",
            "status": "6",
            "type": "LV"
          },
          {
            "area": "LS17 5NU",
            "lat": 53.836588,
            "lon": -1.542606,
            "reference": "INCD-815748-A",
            "status": "6",
            "type": "LV"
          },
          {
            "area": "LS17 5NS",
            "lat": 53.835263,
            "lon": -1.541587,
            "reference": "INCD-815748-A",
            "status": "6",
            "type": "LV"
          }
        ],
        "startedAt": "2026-09-19T11:30:00.000Z",
        "restoreAt": null,
        "restoreAtText": "",
        "updatedAt": "2026-09-19T13:25:24.000Z",
        "officialUrl": "https://www.northernpowergrid.com/power-cuts-map",
        "locationQuality": "centralised_area",
        "rawRecordCount": 5,
        "coordinateSpreadKm": 0.174
      }
    },
    {
      "type": "Feature",
      "id": "npg:current:incd-815723-a",
      "geometry": {
        "type": "Point",
        "coordinates": [
          -1.9375286666666667,
          54.31332666666667
        ]
      },
      "properties": {
        "providerId": "npg",
        "provider": "Northern Powergrid",
        "feedIds": [
          "live"
        ],
        "reference": "INCD-815723-A",
        "category": "current",
        "status": "5",
        "type": "HV_N",
        "area": "North East",
        "areas": [
          "North East"
        ],
        "postcodes": [
          "DL8 4AJ",
          "DL8 4EX",
          "DL8 4ED",
          "DL8 4DG",
          "DL8 4DL",
          "DL8 4ES",
          "DL8 4AG",
          "DL8 4AF",
          "DL8 4HD",
          "DL8 4ET",
          "DL8 4DQ",
          "DL8 4AN",
          "DL8 4AP",
          "DL8 4DF",
          "DL8 4EJ",
          "DL8 4AE",
          "DL8 4DH",
          "DL8 4EW",
          "DL8 4EB",
          "DL8 4EP",
          "DL8 4DE",
          "DL8 4DA",
          "DL8 4DD",
          "DL8 4UF",
          "DL8 4EL",
          "DL8 4AQ",
          "DL8 4EA",
          "DL8 4EU",
          "DL8 4NL",
          "DL8 4DB",
          "DL8 4FB",
          "DL8 4HE",
          "DL8 4AD",
          "DL8 4AH",
          "DL8 4EH",
          "DL8 4ER",
          "DL8 4DN",
          "DL8 4AS",
          "DL8 4EN",
          "DL8 4DT",
          "DL8 4DU",
          "DL8 4DJ",
          "DL8 4DZ",
          "DL8 4EY",
          "DL8 4AL"
        ],
        "groupedLocations": [
          {
            "area": "DL8 4AJ",
            "lat": 54.315696,
            "lon": -1.893599,
            "reference": "INCD-815723-A",
            "status": "5",
            "type": "HV_N"
          },
          {
            "area": "DL8 4EX",
            "lat": 54.322417,
            "lon": -1.946346,
            "reference": "INCD-815723-A",
            "status": "5",
            "type": "HV_N"
          },
          {
            "area": "DL8 4ED",
            "lat": 54.315787,
            "lon": -1.931675,
            "reference": "INCD-815723-A",
            "status": "5",
            "type": "HV_N"
          },
          {
            "area": "DL8 4DG",
            "lat": 54.304374,
            "lon": -1.990182,
            "reference": "INCD-815723-A",
            "status": "5",
            "type": "HV_N"
          },
          {
            "area": "DL8 4DL",
            "lat": 54.300977,
            "lon": -1.995714,
            "reference": "INCD-815723-A",
            "status": "5",
            "type": "HV_N"
          },
          {
            "area": "DL8 4ES",
            "lat": 54.319272,
            "lon": -1.928533,
            "reference": "INCD-815723-A",
            "status": "5",
            "type": "HV_N"
          },
          {
            "area": "DL8 4AG",
            "lat": 54.312629,
            "lon": -1.880942,
            "reference": "INCD-815723-A",
            "status": "5",
            "type": "HV_N"
          },
          {
            "area": "DL8 4AF",
            "lat": 54.312034,
            "lon": -1.879084,
            "reference": "INCD-815723-A",
            "status": "5",
            "type": "HV_N"
          },
          {
            "area": "DL8 4HD",
            "lat": 54.332313,
            "lon": -1.929879,
            "reference": "INCD-815723-A",
            "status": "5",
            "type": "HV_N"
          },
          {
            "area": "DL8 4ET",
            "lat": 54.322634,
            "lon": -1.947653,
            "reference": "INCD-815723-A",
            "status": "5",
            "type": "HV_N"
          },
          {
            "area": "DL8 4DQ",
            "lat": 54.303673,
            "lon": -1.990904,
            "reference": "INCD-815723-A",
            "status": "5",
            "type": "HV_N"
          },
          {
            "area": "DL8 4AN",
            "lat": 54.315452,
            "lon": -1.892524,
            "reference": "INCD-815723-A",
            "status": "5",
            "type": "HV_N"
          },
          {
            "area": "DL8 4AP",
            "lat": 54.315813,
            "lon": -1.893952,
            "reference": "INCD-815723-A",
            "status": "5",
            "type": "HV_N"
          },
          {
            "area": "DL8 4DF",
            "lat": 54.304554,
            "lon": -1.988937,
            "reference": "INCD-815723-A",
            "status": "5",
            "type": "HV_N"
          },
          {
            "area": "DL8 4EJ",
            "lat": 54.316101,
            "lon": -1.930736,
            "reference": "INCD-815723-A",
            "status": "5",
            "type": "HV_N"
          },
          {
            "area": "DL8 4AE",
            "lat": 54.310505,
            "lon": -1.878058,
            "reference": "INCD-815723-A",
            "status": "5",
            "type": "HV_N"
          },
          {
            "area": "DL8 4DH",
            "lat": 54.303341,
            "lon": -1.992487,
            "reference": "INCD-815723-A",
            "status": "5",
            "type": "HV_N"
          },
          {
            "area": "DL8 4EW",
            "lat": 54.317659,
            "lon": -1.922464,
            "reference": "INCD-815723-A",
            "status": "5",
            "type": "HV_N"
          },
          {
            "area": "DL8 4EB",
            "lat": 54.316506,
            "lon": -1.932027,
            "reference": "INCD-815723-A",
            "status": "5",
            "type": "HV_N"
          },
          {
            "area": "DL8 4EP",
            "lat": 54.318313,
            "lon": -1.933592,
            "reference": "INCD-815723-A",
            "status": "5",
            "type": "HV_N"
          },
          {
            "area": "DL8 4DE",
            "lat": 54.305147,
            "lon": -1.987922,
            "reference": "INCD-815723-A",
            "status": "5",
            "type": "HV_N"
          },
          {
            "area": "DL8 4DA",
            "lat": 54.3037,
            "lon": -1.989874,
            "reference": "INCD-815723-A",
            "status": "5",
            "type": "HV_N"
          },
          {
            "area": "DL8 4DD",
            "lat": 54.305803,
            "lon": -1.987815,
            "reference": "INCD-815723-A",
            "status": "5",
            "type": "HV_N"
          },
          {
            "area": "DL8 4UF",
            "lat": 54.303368,
            "lon": -1.886239,
            "reference": "INCD-815723-A",
            "status": "5",
            "type": "HV_N"
          },
          {
            "area": "DL8 4EL",
            "lat": 54.317215,
            "lon": -1.93118,
            "reference": "INCD-815723-A",
            "status": "5",
            "type": "HV_N"
          },
          {
            "area": "DL8 4AQ",
            "lat": 54.315172,
            "lon": -1.891018,
            "reference": "INCD-815723-A",
            "status": "5",
            "type": "HV_N"
          },
          {
            "area": "DL8 4EA",
            "lat": 54.316739,
            "lon": -1.932257,
            "reference": "INCD-815723-A",
            "status": "5",
            "type": "HV_N"
          },
          {
            "area": "DL8 4EU",
            "lat": 54.322615,
            "lon": -1.945039,
            "reference": "INCD-815723-A",
            "status": "5",
            "type": "HV_N"
          },
          {
            "area": "DL8 4NL",
            "lat": 54.318901,
            "lon": -1.911254,
            "reference": "INCD-815723-A",
            "status": "5",
            "type": "HV_N"
          },
          {
            "area": "DL8 4DB",
            "lat": 54.305766,
            "lon": -1.984818,
            "reference": "INCD-815723-A",
            "status": "5",
            "type": "HV_N"
          },
          {
            "area": "DL8 4FB",
            "lat": 54.321477,
            "lon": -1.933987,
            "reference": "INCD-815723-A",
            "status": "5",
            "type": "HV_N"
          },
          {
            "area": "DL8 4HE",
            "lat": 54.316776,
            "lon": -1.933056,
            "reference": "INCD-815723-A",
            "status": "5",
            "type": "HV_N"
          },
          {
            "area": "DL8 4AD",
            "lat": 54.313897,
            "lon": -1.892251,
            "reference": "INCD-815723-A",
            "status": "5",
            "type": "HV_N"
          },
          {
            "area": "DL8 4AH",
            "lat": 54.315634,
            "lon": -1.895152,
            "reference": "INCD-815723-A",
            "status": "5",
            "type": "HV_N"
          },
          {
            "area": "DL8 4EH",
            "lat": 54.31628,
            "lon": -1.930029,
            "reference": "INCD-815723-A",
            "status": "5",
            "type": "HV_N"
          },
          {
            "area": "DL8 4ER",
            "lat": 54.318519,
            "lon": -1.933115,
            "reference": "INCD-815723-A",
            "status": "5",
            "type": "HV_N"
          },
          {
            "area": "DL8 4DN",
            "lat": 54.295549,
            "lon": -1.992089,
            "reference": "INCD-815723-A",
            "status": "5",
            "type": "HV_N"
          },
          {
            "area": "DL8 4AS",
            "lat": 54.315265,
            "lon": -1.894061,
            "reference": "INCD-815723-A",
            "status": "5",
            "type": "HV_N"
          },
          {
            "area": "DL8 4EN",
            "lat": 54.318301,
            "lon": -1.929042,
            "reference": "INCD-815723-A",
            "status": "5",
            "type": "HV_N"
          },
          {
            "area": "DL8 4DT",
            "lat": 54.314723,
            "lon": -1.968875,
            "reference": "INCD-815723-A",
            "status": "5",
            "type": "HV_N"
          },
          {
            "area": "DL8 4DU",
            "lat": 54.304644,
            "lon": -1.989782,
            "reference": "INCD-815723-A",
            "status": "5",
            "type": "HV_N"
          },
          {
            "area": "DL8 4DJ",
            "lat": 54.302909,
            "lon": -1.993424,
            "reference": "INCD-815723-A",
            "status": "5",
            "type": "HV_N"
          },
          {
            "area": "DL8 4DZ",
            "lat": 54.317495,
            "lon": -1.933809,
            "reference": "INCD-815723-A",
            "status": "5",
            "type": "HV_N"
          },
          {
            "area": "DL8 4EY",
            "lat": 54.318214,
            "lon": -1.952839,
            "reference": "INCD-815723-A",
            "status": "5",
            "type": "HV_N"
          },
          {
            "area": "DL8 4AL",
            "lat": 54.315886,
            "lon": -1.895044,
            "reference": "INCD-815723-A",
            "status": "5",
            "type": "HV_N"
          }
        ],
        "startedAt": "2026-09-19T09:23:00.000Z",
        "restoreAt": "2026-09-19T14:00:00.000Z",
        "restoreAtText": "",
        "updatedAt": "2026-09-19T13:25:28.000Z",
        "officialUrl": "https://www.northernpowergrid.com/power-cuts-map",
        "locationQuality": "centralised_area",
        "rawRecordCount": 45,
        "coordinateSpreadKm": 4.049
      }
    },
    {
      "type": "Feature",
      "id": "npg:current:incd-815718-a",
      "geometry": {
        "type": "Point",
        "coordinates": [
          -1.0156663636363639,
          53.61212727272727
        ]
      },
      "properties": {
        "providerId": "npg",
        "provider": "Northern Powergrid",
        "feedIds": [
          "live"
        ],
        "reference": "INCD-815718-A",
        "category": "current",
        "status": "5",
        "type": "LV",
        "area": "Yorkshire",
        "areas": [
          "Yorkshire"
        ],
        "postcodes": [
          "DN7 5LT",
          "DN7 5LP",
          "DN7 5JJ",
          "DN7 5LR",
          "DN7 5JH",
          "DN7 5LL",
          "DN7 5JQ",
          "DN7 5FL",
          "DN7 5LS",
          "DN7 5JT",
          "DN7 5LN"
        ],
        "groupedLocations": [
          {
            "area": "DN7 5LT",
            "lat": 53.612317,
            "lon": -1.014282,
            "reference": "INCD-815718-A",
            "status": "5",
            "type": "LV"
          },
          {
            "area": "DN7 5LP",
            "lat": 53.612678,
            "lon": -1.016587,
            "reference": "INCD-815718-A",
            "status": "5",
            "type": "LV"
          },
          {
            "area": "DN7 5JJ",
            "lat": 53.610943,
            "lon": -1.013347,
            "reference": "INCD-815718-A",
            "status": "5",
            "type": "LV"
          },
          {
            "area": "DN7 5LR",
            "lat": 53.612301,
            "lon": -1.013391,
            "reference": "INCD-815718-A",
            "status": "5",
            "type": "LV"
          },
          {
            "area": "DN7 5JH",
            "lat": 53.610681,
            "lon": -1.013126,
            "reference": "INCD-815718-A",
            "status": "5",
            "type": "LV"
          },
          {
            "area": "DN7 5LL",
            "lat": 53.61411,
            "lon": -1.019108,
            "reference": "INCD-815718-A",
            "status": "5",
            "type": "LV"
          },
          {
            "area": "DN7 5JQ",
            "lat": 53.610275,
            "lon": -1.017383,
            "reference": "INCD-815718-A",
            "status": "5",
            "type": "LV"
          },
          {
            "area": "DN7 5FL",
            "lat": 53.611095,
            "lon": -1.015339,
            "reference": "INCD-815718-A",
            "status": "5",
            "type": "LV"
          },
          {
            "area": "DN7 5LS",
            "lat": 53.611433,
            "lon": -1.014983,
            "reference": "INCD-815718-A",
            "status": "5",
            "type": "LV"
          },
          {
            "area": "DN7 5JT",
            "lat": 53.613382,
            "lon": -1.011537,
            "reference": "INCD-815718-A",
            "status": "5",
            "type": "LV"
          },
          {
            "area": "DN7 5LN",
            "lat": 53.614353,
            "lon": -1.022458,
            "reference": "INCD-815718-A",
            "status": "5",
            "type": "LV"
          }
        ],
        "startedAt": "2026-09-19T08:39:00.000Z",
        "restoreAt": "2026-09-19T17:00:00.000Z",
        "restoreAtText": "",
        "updatedAt": "2026-09-19T13:25:28.000Z",
        "officialUrl": "https://www.northernpowergrid.com/power-cuts-map",
        "locationQuality": "centralised_area",
        "rawRecordCount": 11,
        "coordinateSpreadKm": 0.515
      }
    },
    {
      "type": "Feature",
      "id": "npg:current:incd-815713-a",
      "geometry": {
        "type": "Point",
        "coordinates": [
          -0.6062,
          54.1577
        ]
      },
      "properties": {
        "providerId": "npg",
        "provider": "Northern Powergrid",
        "feedIds": [
          "live"
        ],
        "reference": "INCD-815713-A",
        "category": "current",
        "status": "6",
        "type": "LV",
        "area": "North East",
        "areas": [
          "North East"
        ],
        "postcodes": [
          "YO17 8RY"
        ],
        "groupedLocations": [
          {
            "area": "YO17 8RY",
            "lat": 54.15758,
            "lon": -0.606109,
            "reference": "INCD-815713-A",
            "status": "6",
            "type": "LV"
          }
        ],
        "startedAt": "2026-09-19T08:37:00.000Z",
        "restoreAt": "2026-09-19T12:40:00.000Z",
        "restoreAtText": "",
        "updatedAt": "2026-09-19T12:25:17.000Z",
        "officialUrl": "https://www.northernpowergrid.com/power-cuts-map",
        "locationQuality": "centralised_area",
        "rawRecordCount": 1,
        "coordinateSpreadKm": 0
      }
    },
    {
      "type": "Feature",
      "id": "npg:current:incd-815697-a",
      "geometry": {
        "type": "Point",
        "coordinates": [
          -1.561894,
          54.93952
        ]
      },
      "properties": {
        "providerId": "npg",
        "provider": "Northern Powergrid",
        "feedIds": [
          "live"
        ],
        "reference": "INCD-815697-A",
        "category": "current",
        "status": "5",
        "type": "LV",
        "area": "North East",
        "areas": [
          "North East"
        ],
        "postcodes": [
          "NE10 9BQ",
          "NE10 8NW",
          "NE10 8NG",
          "NE10 8NZ",
          "NE10 9BJ"
        ],
        "groupedLocations": [
          {
            "area": "NE10 9BQ",
            "lat": 54.939973,
            "lon": -1.560855,
            "reference": "INCD-815697-A",
            "status": "5",
            "type": "LV"
          },
          {
            "area": "NE10 8NW",
            "lat": 54.939253,
            "lon": -1.563001,
            "reference": "INCD-815697-A",
            "status": "5",
            "type": "LV"
          },
          {
            "area": "NE10 8NG",
            "lat": 54.938879,
            "lon": -1.56146,
            "reference": "INCD-815697-A",
            "status": "5",
            "type": "LV"
          },
          {
            "area": "NE10 8NZ",
            "lat": 54.93878,
            "lon": -1.563833,
            "reference": "INCD-815697-A",
            "status": "5",
            "type": "LV"
          },
          {
            "area": "NE10 9BJ",
            "lat": 54.940592,
            "lon": -1.56038,
            "reference": "INCD-815697-A",
            "status": "5",
            "type": "LV"
          }
        ],
        "startedAt": "2026-09-19T06:57:00.000Z",
        "restoreAt": "2026-09-19T15:30:00.000Z",
        "restoreAtText": "",
        "updatedAt": "2026-09-19T13:25:28.000Z",
        "officialUrl": "https://www.northernpowergrid.com/power-cuts-map",
        "locationQuality": "centralised_area",
        "rawRecordCount": 5,
        "coordinateSpreadKm": 0.156
      }
    },
    {
      "type": "Feature",
      "id": "npg:current:incd-815689-a",
      "geometry": {
        "type": "Point",
        "coordinates": [
          -1.315989090909091,
          53.44199090909092
        ]
      },
      "properties": {
        "providerId": "npg",
        "provider": "Northern Powergrid",
        "feedIds": [
          "live"
        ],
        "reference": "INCD-815689-A",
        "category": "current",
        "status": "5",
        "type": "LV",
        "area": "Yorkshire",
        "areas": [
          "Yorkshire"
        ],
        "postcodes": [
          "S65 3HD",
          "S65 3EW",
          "S65 3HH",
          "S65 3QZ",
          "S65 3ET",
          "S65 3HJ",
          "S65 3HQ",
          "S65 3EU",
          "S65 3QY",
          "S65 2TS",
          "S65 3HL"
        ],
        "groupedLocations": [
          {
            "area": "S65 3HD",
            "lat": 53.441661,
            "lon": -1.317645,
            "reference": "INCD-815689-A",
            "status": "5",
            "type": "LV"
          },
          {
            "area": "S65 3EW",
            "lat": 53.443499,
            "lon": -1.313686,
            "reference": "INCD-815689-A",
            "status": "5",
            "type": "LV"
          },
          {
            "area": "S65 3HH",
            "lat": 53.442476,
            "lon": -1.315509,
            "reference": "INCD-815689-A",
            "status": "5",
            "type": "LV"
          },
          {
            "area": "S65 3QZ",
            "lat": 53.441772,
            "lon": -1.315069,
            "reference": "INCD-815689-A",
            "status": "5",
            "type": "LV"
          },
          {
            "area": "S65 3ET",
            "lat": 53.443667,
            "lon": -1.316439,
            "reference": "INCD-815689-A",
            "status": "5",
            "type": "LV"
          },
          {
            "area": "S65 3HJ",
            "lat": 53.441451,
            "lon": -1.314005,
            "reference": "INCD-815689-A",
            "status": "5",
            "type": "LV"
          },
          {
            "area": "S65 3HQ",
            "lat": 53.442055,
            "lon": -1.314281,
            "reference": "INCD-815689-A",
            "status": "5",
            "type": "LV"
          },
          {
            "area": "S65 3EU",
            "lat": 53.442737,
            "lon": -1.314105,
            "reference": "INCD-815689-A",
            "status": "5",
            "type": "LV"
          },
          {
            "area": "S65 3QY",
            "lat": 53.440925,
            "lon": -1.314781,
            "reference": "INCD-815689-A",
            "status": "5",
            "type": "LV"
          },
          {
            "area": "S65 2TS",
            "lat": 53.439603,
            "lon": -1.327343,
            "reference": "INCD-815689-A",
            "status": "5",
            "type": "LV"
          },
          {
            "area": "S65 3HL",
            "lat": 53.441918,
            "lon": -1.313832,
            "reference": "INCD-815689-A",
            "status": "5",
            "type": "LV"
          }
        ],
        "startedAt": "2026-09-19T05:29:00.000Z",
        "restoreAt": "2026-09-19T17:00:00.000Z",
        "restoreAtText": "",
        "updatedAt": "2026-09-19T13:25:26.000Z",
        "officialUrl": "https://www.northernpowergrid.com/power-cuts-map",
        "locationQuality": "centralised_area",
        "rawRecordCount": 11,
        "coordinateSpreadKm": 0.792
      }
    },
    {
      "type": "Feature",
      "id": "npg:planned:ppcr79854",
      "geometry": {
        "type": "Point",
        "coordinates": [
          -1.884765,
          53.7017
        ]
      },
      "properties": {
        "providerId": "npg",
        "provider": "Northern Powergrid",
        "feedIds": [
          "live"
        ],
        "reference": "PPCR79854",
        "category": "planned",
        "status": "5",
        "type": "LV",
        "area": "Yorkshire",
        "areas": [
          "Yorkshire"
        ],
        "postcodes": [
          "HX6 3LQ",
          "HX6 3LG"
        ],
        "groupedLocations": [
          {
            "area": "HX6 3LQ",
            "lat": 53.701226,
            "lon": -1.885756,
            "reference": "PPCR79854",
            "status": "5",
            "type": "LV"
          },
          {
            "area": "HX6 3LG",
            "lat": 53.702267,
            "lon": -1.883799,
            "reference": "PPCR79854",
            "status": "5",
            "type": "LV"
          }
        ],
        "startedAt": "2026-09-19T10:45:00.000Z",
        "restoreAt": "2026-09-19T16:00:00.000Z",
        "restoreAtText": "",
        "updatedAt": "2026-09-19T13:25:21.000Z",
        "officialUrl": "https://www.northernpowergrid.com/power-cuts-map",
        "locationQuality": "centralised_area",
        "rawRecordCount": 2,
        "coordinateSpreadKm": 0.087
      }
    },
    {
      "type": "Feature",
      "id": "npg:planned:ppcr79708",
      "geometry": {
        "type": "Point",
        "coordinates": [
          -1.74257,
          53.8458
        ]
      },
      "properties": {
        "providerId": "npg",
        "provider": "Northern Powergrid",
        "feedIds": [
          "live"
        ],
        "reference": "PPCR79708",
        "category": "planned",
        "status": "4",
        "type": "HV_N",
        "area": "Yorkshire",
        "areas": [
          "Yorkshire"
        ],
        "postcodes": [
          "BD10 0SJ",
          "BD10 0TP"
        ],
        "groupedLocations": [
          {
            "area": "BD10 0SJ",
            "lat": 53.844805,
            "lon": -1.743337,
            "reference": "PPCR79708",
            "status": "4",
            "type": "HV_N"
          },
          {
            "area": "Yorkshire",
            "lat": 53.8474,
            "lon": -1.74233,
            "reference": "PPCR79708",
            "status": "4",
            "type": "HV_N"
          }
        ],
        "startedAt": "2026-09-19T23:30:00.000Z",
        "restoreAt": "2026-09-20T07:00:00.000Z",
        "restoreAtText": "",
        "updatedAt": "2026-09-19T13:25:21.000Z",
        "officialUrl": "https://www.northernpowergrid.com/power-cuts-map",
        "locationQuality": "centralised_area",
        "rawRecordCount": 2,
        "coordinateSpreadKm": 0.148
      }
    },
    {
      "type": "Feature",
      "id": "npg:planned:ppcr79424",
      "geometry": {
        "type": "Point",
        "coordinates": [
          -1.7525,
          55.0647
        ]
      },
      "properties": {
        "providerId": "npg",
        "provider": "Northern Powergrid",
        "feedIds": [
          "live"
        ],
        "reference": "PPCR79424",
        "category": "planned",
        "status": "5",
        "type": "LV",
        "area": "North East",
        "areas": [
          "North East"
        ],
        "postcodes": [
          "NE20 0AD"
        ],
        "groupedLocations": [
          {
            "area": "NE20 0AD",
            "lat": 55.064674,
            "lon": -1.752518,
            "reference": "PPCR79424",
            "status": "5",
            "type": "LV"
          }
        ],
        "startedAt": "2026-09-19T09:00:00.000Z",
        "restoreAt": "2026-09-19T13:30:00.000Z",
        "restoreAtText": "",
        "updatedAt": "2026-09-19T13:25:21.000Z",
        "officialUrl": "https://www.northernpowergrid.com/power-cuts-map",
        "locationQuality": "centralised_area",
        "rawRecordCount": 1,
        "coordinateSpreadKm": 0
      }
    },
    {
      "type": "Feature",
      "id": "npg:planned:incd-815766-a",
      "geometry": {
        "type": "Point",
        "coordinates": [
          -1.7006199999999998,
          53.36211666666667
        ]
      },
      "properties": {
        "providerId": "npg",
        "provider": "Northern Powergrid",
        "feedIds": [
          "live"
        ],
        "reference": "INCD-815766-A",
        "category": "planned",
        "status": "5",
        "type": "HV_N",
        "area": "Yorkshire",
        "areas": [
          "Yorkshire"
        ],
        "postcodes": [
          "S33 6RU",
          "S6 3DH",
          "S33 9NG",
          "S33 9HG",
          "S30 2RW",
          "S33 6RA",
          "S33 6RR",
          "S33 6RB",
          "S33 6RW",
          "S33 0AU",
          "S30 6RB",
          "S33 9JT"
        ],
        "groupedLocations": [
          {
            "area": "S33 6RU",
            "lat": 53.342584,
            "lon": -1.725913,
            "reference": "INCD-815766-A",
            "status": "5",
            "type": "HV_N"
          },
          {
            "area": "S6 3DH",
            "lat": 53.391888,
            "lon": -1.484149,
            "reference": "INCD-815766-A",
            "status": "5",
            "type": "HV_N"
          },
          {
            "area": "S33 9NG",
            "lat": 53.340391,
            "lon": -1.726032,
            "reference": "INCD-815766-A",
            "status": "5",
            "type": "HV_N"
          },
          {
            "area": "S33 9HG",
            "lat": 53.338831,
            "lon": -1.727979,
            "reference": "INCD-815766-A",
            "status": "5",
            "type": "HV_N"
          },
          {
            "area": "Yorkshire",
            "lat": 53.3405,
            "lon": -1.74039,
            "reference": "INCD-815766-A",
            "status": "5",
            "type": "HV_N"
          },
          {
            "area": "S33 6RA",
            "lat": 53.352236,
            "lon": -1.7254,
            "reference": "INCD-815766-A",
            "status": "5",
            "type": "HV_N"
          },
          {
            "area": "S33 6RR",
            "lat": 53.344961,
            "lon": -1.735886,
            "reference": "INCD-815766-A",
            "status": "5",
            "type": "HV_N"
          },
          {
            "area": "S33 6RB",
            "lat": 53.344678,
            "lon": -1.722024,
            "reference": "INCD-815766-A",
            "status": "5",
            "type": "HV_N"
          },
          {
            "area": "S33 6RW",
            "lat": 53.340738,
            "lon": -1.740973,
            "reference": "INCD-815766-A",
            "status": "5",
            "type": "HV_N"
          },
          {
            "area": "S33 0AU",
            "lat": 53.346586,
            "lon": -1.693487,
            "reference": "INCD-815766-A",
            "status": "5",
            "type": "HV_N"
          },
          {
            "area": "Yorkshire",
            "lat": 53.5267,
            "lon": -1.64793,
            "reference": "INCD-815766-A",
            "status": "5",
            "type": "HV_N"
          },
          {
            "area": "S33 9JT",
            "lat": 53.335128,
            "lon": -1.736112,
            "reference": "INCD-815766-A",
            "status": "5",
            "type": "HV_N"
          }
        ],
        "startedAt": "2026-09-19T13:11:00.000Z",
        "restoreAt": "2026-09-19T14:41:00.000Z",
        "restoreAtText": "",
        "updatedAt": "2026-09-19T13:25:26.000Z",
        "officialUrl": "https://www.northernpowergrid.com/power-cuts-map",
        "locationQuality": "centralised_area",
        "rawRecordCount": 12,
        "coordinateSpreadKm": 18.631
      }
    },
    {
      "type": "Feature",
      "id": "npg:current:incd-815684-a",
      "geometry": {
        "type": "Point",
        "coordinates": [
          -1.1506699999999999,
          54.55655
        ]
      },
      "properties": {
        "providerId": "npg",
        "provider": "Northern Powergrid",
        "feedIds": [
          "live"
        ],
        "reference": "INCD-815684-A",
        "category": "current",
        "status": "5",
        "type": "LV",
        "area": "North East",
        "areas": [
          "North East"
        ],
        "postcodes": [
          "TS6 0RG",
          "TS6 0RF",
          "TS6 0RS",
          "TS6 0RE"
        ],
        "groupedLocations": [
          {
            "area": "TS6 0RG",
            "lat": 54.556959,
            "lon": -1.149095,
            "reference": "INCD-815684-A",
            "status": "5",
            "type": "LV"
          },
          {
            "area": "TS6 0RF",
            "lat": 54.556387,
            "lon": -1.150947,
            "reference": "INCD-815684-A",
            "status": "5",
            "type": "LV"
          },
          {
            "area": "TS6 0RS",
            "lat": 54.555626,
            "lon": -1.15135,
            "reference": "INCD-815684-A",
            "status": "5",
            "type": "LV"
          },
          {
            "area": "TS6 0RE",
            "lat": 54.557289,
            "lon": -1.151346,
            "reference": "INCD-815684-A",
            "status": "5",
            "type": "LV"
          }
        ],
        "startedAt": "2026-09-19T05:02:00.000Z",
        "restoreAt": "2026-09-19T14:15:00.000Z",
        "restoreAtText": "",
        "updatedAt": "2026-09-19T13:25:27.000Z",
        "officialUrl": "https://www.northernpowergrid.com/power-cuts-map",
        "locationQuality": "centralised_area",
        "rawRecordCount": 4,
        "coordinateSpreadKm": 0.113
      }
    },
    {
      "type": "Feature",
      "id": "npg:current:incd-815683-a",
      "geometry": {
        "type": "Point",
        "coordinates": [
          -1.6919149999999998,
          54.6567
        ]
      },
      "properties": {
        "providerId": "npg",
        "provider": "Northern Powergrid",
        "feedIds": [
          "live"
        ],
        "reference": "INCD-815683-A",
        "category": "current",
        "status": "5",
        "type": "LV",
        "area": "North East",
        "areas": [
          "North East"
        ],
        "postcodes": [
          "DL14 6UG",
          "DL14 6UF"
        ],
        "groupedLocations": [
          {
            "area": "DL14 6UG",
            "lat": 54.656441,
            "lon": -1.692394,
            "reference": "INCD-815683-A",
            "status": "5",
            "type": "LV"
          },
          {
            "area": "DL14 6UF",
            "lat": 54.657023,
            "lon": -1.691459,
            "reference": "INCD-815683-A",
            "status": "5",
            "type": "LV"
          }
        ],
        "startedAt": "2026-09-19T04:11:00.000Z",
        "restoreAt": "2026-09-19T18:00:00.000Z",
        "restoreAtText": "",
        "updatedAt": "2026-09-19T13:25:27.000Z",
        "officialUrl": "https://www.northernpowergrid.com/power-cuts-map",
        "locationQuality": "centralised_area",
        "rawRecordCount": 2,
        "coordinateSpreadKm": 0.044
      }
    },
    {
      "type": "Feature",
      "id": "npg:current:incd-815682-a",
      "geometry": {
        "type": "Point",
        "coordinates": [
          -1.3191733333333333,
          53.598099999999995
        ]
      },
      "properties": {
        "providerId": "npg",
        "provider": "Northern Powergrid",
        "feedIds": [
          "live"
        ],
        "reference": "INCD-815682-A",
        "category": "current",
        "status": "6",
        "type": "LV",
        "area": "Yorkshire",
        "areas": [
          "Yorkshire"
        ],
        "postcodes": [
          "WF9 3BG",
          "WF9 3AR",
          "WF9 4PU",
          "WF9 3BL",
          "WF9 3DZ",
          "WF9 3LA"
        ],
        "groupedLocations": [
          {
            "area": "WF9 3BG",
            "lat": 53.594876,
            "lon": -1.309394,
            "reference": "INCD-815682-A",
            "status": "6",
            "type": "LV"
          },
          {
            "area": "WF9 3AR",
            "lat": 53.594537,
            "lon": -1.308357,
            "reference": "INCD-815682-A",
            "status": "6",
            "type": "LV"
          },
          {
            "area": "WF9 4PU",
            "lat": 53.613544,
            "lon": -1.357686,
            "reference": "INCD-815682-A",
            "status": "6",
            "type": "LV"
          },
          {
            "area": "WF9 3BL",
            "lat": 53.596367,
            "lon": -1.313917,
            "reference": "INCD-815682-A",
            "status": "6",
            "type": "LV"
          },
          {
            "area": "WF9 3DZ",
            "lat": 53.594437,
            "lon": -1.309582,
            "reference": "INCD-815682-A",
            "status": "6",
            "type": "LV"
          },
          {
            "area": "WF9 3LA",
            "lat": 53.59469,
            "lon": -1.316075,
            "reference": "INCD-815682-A",
            "status": "6",
            "type": "LV"
          }
        ],
        "startedAt": "2026-09-19T04:19:00.000Z",
        "restoreAt": "2026-09-19T13:30:00.000Z",
        "restoreAtText": "",
        "updatedAt": "2026-09-19T13:25:24.000Z",
        "officialUrl": "https://www.northernpowergrid.com/power-cuts-map",
        "locationQuality": "centralised_area",
        "rawRecordCount": 6,
        "coordinateSpreadKm": 3.069
      }
    },
    {
      "type": "Feature",
      "id": "npg:planned:incd-815765-a",
      "geometry": {
        "type": "Point",
        "coordinates": [
          -1.7014338297872342,
          53.36503191489363
        ]
      },
      "properties": {
        "providerId": "npg",
        "provider": "Northern Powergrid",
        "feedIds": [
          "live"
        ],
        "reference": "INCD-815765-A",
        "category": "planned",
        "status": "5",
        "type": "HV_N",
        "area": "Yorkshire",
        "areas": [
          "Yorkshire"
        ],
        "postcodes": [
          "S36 4TF",
          "S33 0AZ",
          "S33 0AU",
          "S33 0BZ",
          "S33 0BE",
          "S33 0AH",
          "S33 0AJ",
          "S33 0AF",
          "S33 0BJ",
          "S33 0AY",
          "S33 0AD",
          "S33 0DW",
          "S33 0AW",
          "S33 0AG",
          "S33 0BS",
          "S33 0AS",
          "S33 0DB",
          "S33 0BT",
          "S33 0BL",
          "S33 0BW",
          "S33 0BR",
          "S33 0EA",
          "S33 6RB",
          "S33 0BD",
          "S33 0BP",
          "S33 0BY",
          "S33 0AP",
          "S33 0DU",
          "S33 0BN",
          "S30 2AQ",
          "S33 0AT",
          "S33 0DA",
          "S33 0BA",
          "S33 0BG",
          "S33 0AE",
          "S33 0AR",
          "S33 0BQ",
          "S33 0BU",
          "S33 0AN",
          "S30 2AR",
          "S33 0AL",
          "S33 2AZ",
          "S33 0AA",
          "S33 0EB",
          "S33 0BH",
          "S33 0DY",
          "S30 2BN"
        ],
        "groupedLocations": [
          {
            "area": "S36 4TF",
            "lat": 53.517677,
            "lon": -1.766939,
            "reference": "INCD-815765-A",
            "status": "5",
            "type": "HV_N"
          },
          {
            "area": "S33 0AZ",
            "lat": 53.358877,
            "lon": -1.698552,
            "reference": "INCD-815765-A",
            "status": "5",
            "type": "HV_N"
          },
          {
            "area": "S33 0AU",
            "lat": 53.346586,
            "lon": -1.693487,
            "reference": "INCD-815765-A",
            "status": "5",
            "type": "HV_N"
          },
          {
            "area": "S33 0BZ",
            "lat": 53.348046,
            "lon": -1.688234,
            "reference": "INCD-815765-A",
            "status": "5",
            "type": "HV_N"
          },
          {
            "area": "S33 0BE",
            "lat": 53.341336,
            "lon": -1.686495,
            "reference": "INCD-815765-A",
            "status": "5",
            "type": "HV_N"
          },
          {
            "area": "S33 0AH",
            "lat": 53.337876,
            "lon": -1.69002,
            "reference": "INCD-815765-A",
            "status": "5",
            "type": "HV_N"
          },
          {
            "area": "S33 0AJ",
            "lat": 53.35176,
            "lon": -1.702899,
            "reference": "INCD-815765-A",
            "status": "5",
            "type": "HV_N"
          },
          {
            "area": "S33 0AF",
            "lat": 53.346893,
            "lon": -1.687206,
            "reference": "INCD-815765-A",
            "status": "5",
            "type": "HV_N"
          },
          {
            "area": "S33 0BJ",
            "lat": 53.40285,
            "lon": -1.786802,
            "reference": "INCD-815765-A",
            "status": "5",
            "type": "HV_N"
          },
          {
            "area": "S33 0AY",
            "lat": 53.346525,
            "lon": -1.690738,
            "reference": "INCD-815765-A",
            "status": "5",
            "type": "HV_N"
          },
          {
            "area": "S33 0AD",
            "lat": 53.355639,
            "lon": -1.690747,
            "reference": "INCD-815765-A",
            "status": "5",
            "type": "HV_N"
          },
          {
            "area": "S33 0DW",
            "lat": 53.3488,
            "lon": -1.687853,
            "reference": "INCD-815765-A",
            "status": "5",
            "type": "HV_N"
          },
          {
            "area": "S33 0AW",
            "lat": 53.347134,
            "lon": -1.686318,
            "reference": "INCD-815765-A",
            "status": "5",
            "type": "HV_N"
          },
          {
            "area": "S33 0AG",
            "lat": 53.346473,
            "lon": -1.688125,
            "reference": "INCD-815765-A",
            "status": "5",
            "type": "HV_N"
          },
          {
            "area": "S33 0BS",
            "lat": 53.346258,
            "lon": -1.691672,
            "reference": "INCD-815765-A",
            "status": "5",
            "type": "HV_N"
          },
          {
            "area": "S33 0AS",
            "lat": 53.351478,
            "lon": -1.690763,
            "reference": "INCD-815765-A",
            "status": "5",
            "type": "HV_N"
          },
          {
            "area": "S33 0DB",
            "lat": 53.350577,
            "lon": -1.690033,
            "reference": "INCD-815765-A",
            "status": "5",
            "type": "HV_N"
          },
          {
            "area": "S33 0BT",
            "lat": 53.350502,
            "lon": -1.689042,
            "reference": "INCD-815765-A",
            "status": "5",
            "type": "HV_N"
          },
          {
            "area": "S33 0BL",
            "lat": 53.348942,
            "lon": -1.690315,
            "reference": "INCD-815765-A",
            "status": "5",
            "type": "HV_N"
          },
          {
            "area": "S33 0BW",
            "lat": 53.343147,
            "lon": -1.68115,
            "reference": "INCD-815765-A",
            "status": "5",
            "type": "HV_N"
          },
          {
            "area": "S33 0BR",
            "lat": 53.347923,
            "lon": -1.703481,
            "reference": "INCD-815765-A",
            "status": "5",
            "type": "HV_N"
          },
          {
            "area": "S33 0EA",
            "lat": 53.338628,
            "lon": -1.692387,
            "reference": "INCD-815765-A",
            "status": "5",
            "type": "HV_N"
          },
          {
            "area": "S33 6RB",
            "lat": 53.344678,
            "lon": -1.722024,
            "reference": "INCD-815765-A",
            "status": "5",
            "type": "HV_N"
          },
          {
            "area": "S33 0BD",
            "lat": 53.347397,
            "lon": -1.690657,
            "reference": "INCD-815765-A",
            "status": "5",
            "type": "HV_N"
          },
          {
            "area": "S33 0BP",
            "lat": 53.36149,
            "lon": -1.701028,
            "reference": "INCD-815765-A",
            "status": "5",
            "type": "HV_N"
          },
          {
            "area": "S33 0BY",
            "lat": 53.364163,
            "lon": -1.698605,
            "reference": "INCD-815765-A",
            "status": "5",
            "type": "HV_N"
          },
          {
            "area": "S33 0AP",
            "lat": 53.347773,
            "lon": -1.690128,
            "reference": "INCD-815765-A",
            "status": "5",
            "type": "HV_N"
          },
          {
            "area": "S33 0DU",
            "lat": 53.347579,
            "lon": -1.691602,
            "reference": "INCD-815765-A",
            "status": "5",
            "type": "HV_N"
          },
          {
            "area": "S33 0BN",
            "lat": 53.340717,
            "lon": -1.69039,
            "reference": "INCD-815765-A",
            "status": "5",
            "type": "HV_N"
          },
          {
            "area": "Yorkshire",
            "lat": 53.3958,
            "lon": -1.72714,
            "reference": "INCD-815765-A",
            "status": "5",
            "type": "HV_N"
          },
          {
            "area": "S33 0AT",
            "lat": 53.348858,
            "lon": -1.689114,
            "reference": "INCD-815765-A",
            "status": "5",
            "type": "HV_N"
          },
          {
            "area": "S33 0DA",
            "lat": 53.343783,
            "lon": -1.694198,
            "reference": "INCD-815765-A",
            "status": "5",
            "type": "HV_N"
          },
          {
            "area": "S33 0BA",
            "lat": 53.361307,
            "lon": -1.699827,
            "reference": "INCD-815765-A",
            "status": "5",
            "type": "HV_N"
          },
          {
            "area": "S33 0BG",
            "lat": 53.338387,
            "lon": -1.699973,
            "reference": "INCD-815765-A",
            "status": "5",
            "type": "HV_N"
          },
          {
            "area": "S33 0AE",
            "lat": 53.361432,
            "lon": -1.699211,
            "reference": "INCD-815765-A",
            "status": "5",
            "type": "HV_N"
          },
          {
            "area": "S33 0AR",
            "lat": 53.348658,
            "lon": -1.688379,
            "reference": "INCD-815765-A",
            "status": "5",
            "type": "HV_N"
          },
          {
            "area": "S33 0BQ",
            "lat": 53.34953,
            "lon": -1.688268,
            "reference": "INCD-815765-A",
            "status": "5",
            "type": "HV_N"
          },
          {
            "area": "S33 0BU",
            "lat": 53.352253,
            "lon": -1.691478,
            "reference": "INCD-815765-A",
            "status": "5",
            "type": "HV_N"
          },
          {
            "area": "S33 0AN",
            "lat": 53.349509,
            "lon": -1.687292,
            "reference": "INCD-815765-A",
            "status": "5",
            "type": "HV_N"
          },
          {
            "area": "Yorkshire",
            "lat": 53.3486,
            "lon": -1.68841,
            "reference": "INCD-815765-A",
            "status": "5",
            "type": "HV_N"
          },
          {
            "area": "S33 0AL",
            "lat": 53.341339,
            "lon": -1.70171,
            "reference": "INCD-815765-A",
            "status": "5",
            "type": "HV_N"
          },
          {
            "area": "Yorkshire",
            "lat": 53.8771,
            "lon": -1.89718,
            "reference": "INCD-815765-A",
            "status": "5",
            "type": "HV_N"
          },
          {
            "area": "S33 0AA",
            "lat": 53.348221,
            "lon": -1.689569,
            "reference": "INCD-815765-A",
            "status": "5",
            "type": "HV_N"
          },
          {
            "area": "S33 0EB",
            "lat": 53.338152,
            "lon": -1.692466,
            "reference": "INCD-815765-A",
            "status": "5",
            "type": "HV_N"
          },
          {
            "area": "Yorkshire",
            "lat": 53.3383,
            "lon": -1.69283,
            "reference": "INCD-815765-A",
            "status": "5",
            "type": "HV_N"
          },
          {
            "area": "S33 0DY",
            "lat": 53.349022,
            "lon": -1.689924,
            "reference": "INCD-815765-A",
            "status": "5",
            "type": "HV_N"
          },
          {
            "area": "Yorkshire",
            "lat": 53.3393,
            "lon": -1.68933,
            "reference": "INCD-815765-A",
            "status": "5",
            "type": "HV_N"
          }
        ],
        "startedAt": "2026-09-19T13:11:00.000Z",
        "restoreAt": "2026-09-19T14:41:00.000Z",
        "restoreAtText": "",
        "updatedAt": "2026-09-19T13:25:28.000Z",
        "officialUrl": "https://www.northernpowergrid.com/power-cuts-map",
        "locationQuality": "centralised_area",
        "rawRecordCount": 47,
        "coordinateSpreadKm": 58.384
      }
    },
    {
      "type": "Feature",
      "id": "npg:current:incd-815676-a",
      "geometry": {
        "type": "Point",
        "coordinates": [
          -1.6369,
          54.86304
        ]
      },
      "properties": {
        "providerId": "npg",
        "provider": "Northern Powergrid",
        "feedIds": [
          "live"
        ],
        "reference": "INCD-815676-A",
        "category": "current",
        "status": "6",
        "type": "LV",
        "area": "North East",
        "areas": [
          "North East"
        ],
        "postcodes": [
          "DH2 3LT",
          "DH2 3LS",
          "DH2 3LR",
          "DH2 3LJ",
          "DH2 3LU"
        ],
        "groupedLocations": [
          {
            "area": "DH2 3LT",
            "lat": 54.863231,
            "lon": -1.63731,
            "reference": "INCD-815676-A",
            "status": "6",
            "type": "LV"
          },
          {
            "area": "DH2 3LS",
            "lat": 54.863266,
            "lon": -1.637014,
            "reference": "INCD-815676-A",
            "status": "6",
            "type": "LV"
          },
          {
            "area": "DH2 3LR",
            "lat": 54.863247,
            "lon": -1.636671,
            "reference": "INCD-815676-A",
            "status": "6",
            "type": "LV"
          },
          {
            "area": "DH2 3LJ",
            "lat": 54.862193,
            "lon": -1.635933,
            "reference": "INCD-815676-A",
            "status": "6",
            "type": "LV"
          },
          {
            "area": "DH2 3LU",
            "lat": 54.863169,
            "lon": -1.637654,
            "reference": "INCD-815676-A",
            "status": "6",
            "type": "LV"
          }
        ],
        "startedAt": "2026-09-19T01:12:00.000Z",
        "restoreAt": "2026-09-19T12:30:00.000Z",
        "restoreAtText": "",
        "updatedAt": "2026-09-19T12:30:17.000Z",
        "officialUrl": "https://www.northernpowergrid.com/power-cuts-map",
        "locationQuality": "centralised_area",
        "rawRecordCount": 5,
        "coordinateSpreadKm": 0.112
      }
    },
    {
      "type": "Feature",
      "id": "npg:current:incd-815487-a",
      "geometry": {
        "type": "Point",
        "coordinates": [
          -1.4311292857142857,
          54.750299999999996
        ]
      },
      "properties": {
        "providerId": "npg",
        "provider": "Northern Powergrid",
        "feedIds": [
          "live"
        ],
        "reference": "INCD-815487-A",
        "category": "current",
        "status": "5",
        "type": "LV",
        "area": "North East",
        "areas": [
          "North East"
        ],
        "postcodes": [
          "DH6 3AS",
          "DH6 3DF",
          "DH6 3AJ",
          "DH6 3EN",
          "DH6 3EG",
          "DH6 3AL",
          "DH6 3BL",
          "DH6 3EL",
          "DH6 3EW",
          "DH6 3BG",
          "DH6 3EF",
          "DH6 3AN",
          "DH6 3BQ",
          "DH6 3BE"
        ],
        "groupedLocations": [
          {
            "area": "DH6 3AS",
            "lat": 54.750044,
            "lon": -1.428711,
            "reference": "INCD-815487-A",
            "status": "5",
            "type": "LV"
          },
          {
            "area": "DH6 3DF",
            "lat": 54.750913,
            "lon": -1.43569,
            "reference": "INCD-815487-A",
            "status": "5",
            "type": "LV"
          },
          {
            "area": "DH6 3AJ",
            "lat": 54.751452,
            "lon": -1.428117,
            "reference": "INCD-815487-A",
            "status": "5",
            "type": "LV"
          },
          {
            "area": "DH6 3EN",
            "lat": 54.750629,
            "lon": -1.434529,
            "reference": "INCD-815487-A",
            "status": "5",
            "type": "LV"
          },
          {
            "area": "DH6 3EG",
            "lat": 54.750384,
            "lon": -1.428303,
            "reference": "INCD-815487-A",
            "status": "5",
            "type": "LV"
          },
          {
            "area": "DH6 3AL",
            "lat": 54.751022,
            "lon": -1.428387,
            "reference": "INCD-815487-A",
            "status": "5",
            "type": "LV"
          },
          {
            "area": "DH6 3BL",
            "lat": 54.749807,
            "lon": -1.429802,
            "reference": "INCD-815487-A",
            "status": "5",
            "type": "LV"
          },
          {
            "area": "DH6 3EL",
            "lat": 54.749581,
            "lon": -1.435227,
            "reference": "INCD-815487-A",
            "status": "5",
            "type": "LV"
          },
          {
            "area": "DH6 3EW",
            "lat": 54.749689,
            "lon": -1.437199,
            "reference": "INCD-815487-A",
            "status": "5",
            "type": "LV"
          },
          {
            "area": "DH6 3BG",
            "lat": 54.75027,
            "lon": -1.428895,
            "reference": "INCD-815487-A",
            "status": "5",
            "type": "LV"
          },
          {
            "area": "DH6 3EF",
            "lat": 54.749697,
            "lon": -1.433128,
            "reference": "INCD-815487-A",
            "status": "5",
            "type": "LV"
          },
          {
            "area": "DH6 3AN",
            "lat": 54.750251,
            "lon": -1.430542,
            "reference": "INCD-815487-A",
            "status": "5",
            "type": "LV"
          },
          {
            "area": "DH6 3BQ",
            "lat": 54.750476,
            "lon": -1.425039,
            "reference": "INCD-815487-A",
            "status": "5",
            "type": "LV"
          },
          {
            "area": "DH6 3BE",
            "lat": 54.750149,
            "lon": -1.42986,
            "reference": "INCD-815487-A",
            "status": "5",
            "type": "LV"
          }
        ],
        "startedAt": "2026-09-18T11:34:00.000Z",
        "restoreAt": "2026-09-19T15:30:00.000Z",
        "restoreAtText": "",
        "updatedAt": "2026-09-19T13:25:28.000Z",
        "officialUrl": "https://www.northernpowergrid.com/power-cuts-map",
        "locationQuality": "centralised_area",
        "rawRecordCount": 14,
        "coordinateSpreadKm": 0.406
      }
    },
    {
      "type": "Feature",
      "id": "npg:current:incd-815759-a",
      "geometry": {
        "type": "Point",
        "coordinates": [
          -1.691165,
          53.92561249999999
        ]
      },
      "properties": {
        "providerId": "npg",
        "provider": "Northern Powergrid",
        "feedIds": [
          "live"
        ],
        "reference": "INCD-815759-A",
        "category": "current",
        "status": "5",
        "type": "HV_N",
        "area": "Yorkshire",
        "areas": [
          "Yorkshire"
        ],
        "postcodes": [
          "LS21 2ET",
          "LS21 2EX",
          "LS21 2QH",
          "LS21 2RB",
          "LS21 2QE",
          "LS21 2ES",
          "LS21 2HD",
          "LS21 2EU"
        ],
        "groupedLocations": [
          {
            "area": "LS21 2ET",
            "lat": 53.921479,
            "lon": -1.696411,
            "reference": "INCD-815759-A",
            "status": "5",
            "type": "HV_N"
          },
          {
            "area": "LS21 2EX",
            "lat": 53.922199,
            "lon": -1.696513,
            "reference": "INCD-815759-A",
            "status": "5",
            "type": "HV_N"
          },
          {
            "area": "LS21 2QH",
            "lat": 53.929737,
            "lon": -1.678472,
            "reference": "INCD-815759-A",
            "status": "5",
            "type": "HV_N"
          },
          {
            "area": "LS21 2RB",
            "lat": 53.93959,
            "lon": -1.682479,
            "reference": "INCD-815759-A",
            "status": "5",
            "type": "HV_N"
          },
          {
            "area": "LS21 2QE",
            "lat": 53.920553,
            "lon": -1.682303,
            "reference": "INCD-815759-A",
            "status": "5",
            "type": "HV_N"
          },
          {
            "area": "LS21 2ES",
            "lat": 53.921499,
            "lon": -1.697203,
            "reference": "INCD-815759-A",
            "status": "5",
            "type": "HV_N"
          },
          {
            "area": "LS21 2HD",
            "lat": 53.928429,
            "lon": -1.697366,
            "reference": "INCD-815759-A",
            "status": "5",
            "type": "HV_N"
          },
          {
            "area": "LS21 2EU",
            "lat": 53.921468,
            "lon": -1.695361,
            "reference": "INCD-815759-A",
            "status": "5",
            "type": "HV_N"
          }
        ],
        "startedAt": "2026-09-19T12:29:00.000Z",
        "restoreAt": "2026-09-19T15:00:00.000Z",
        "restoreAtText": "",
        "updatedAt": "2026-09-19T13:25:28.000Z",
        "officialUrl": "https://www.northernpowergrid.com/power-cuts-map",
        "locationQuality": "centralised_area",
        "rawRecordCount": 8,
        "coordinateSpreadKm": 1.645
      }
    },
    {
      "type": "Feature",
      "id": "npg:current:incd-815755-a",
      "geometry": {
        "type": "Point",
        "coordinates": [
          -1.1363850000000002,
          54.60065
        ]
      },
      "properties": {
        "providerId": "npg",
        "provider": "Northern Powergrid",
        "feedIds": [
          "live"
        ],
        "reference": "INCD-815755-A",
        "category": "current",
        "status": "5",
        "type": "HV_N",
        "area": "North East",
        "areas": [
          "North East"
        ],
        "postcodes": [
          "TS6 7SA",
          "TS6 7RT"
        ],
        "groupedLocations": [
          {
            "area": "TS6 7SA",
            "lat": 54.601784,
            "lon": -1.139895,
            "reference": "INCD-815755-A",
            "status": "5",
            "type": "HV_N"
          },
          {
            "area": "TS6 7RT",
            "lat": 54.597465,
            "lon": -1.137928,
            "reference": "INCD-815755-A",
            "status": "5",
            "type": "HV_N"
          }
        ],
        "startedAt": "2026-09-19T11:58:00.000Z",
        "restoreAt": "2026-09-19T13:28:00.000Z",
        "restoreAtText": "",
        "updatedAt": "2026-09-19T13:25:28.000Z",
        "officialUrl": "https://www.northernpowergrid.com/power-cuts-map",
        "locationQuality": "centralised_area",
        "rawRecordCount": 2,
        "coordinateSpreadKm": 0.248
      }
    },
    {
      "type": "Feature",
      "id": "npg:current:incd-815735-a",
      "geometry": {
        "type": "Point",
        "coordinates": [
          -1.0454225,
          54.154725
        ]
      },
      "properties": {
        "providerId": "npg",
        "provider": "Northern Powergrid",
        "feedIds": [
          "live"
        ],
        "reference": "INCD-815735-A",
        "category": "current",
        "status": "5",
        "type": "LV",
        "area": "North East",
        "areas": [
          "North East"
        ],
        "postcodes": [
          "YO23 3RD",
          "YO62 5JL",
          "YO62 5JA",
          "YO62 5JF"
        ],
        "groupedLocations": [
          {
            "area": "YO23 3RD",
            "lat": 53.927658,
            "lon": -1.1641,
            "reference": "INCD-815735-A",
            "status": "5",
            "type": "LV"
          },
          {
            "area": "YO62 5JL",
            "lat": 54.229574,
            "lon": -1.00532,
            "reference": "INCD-815735-A",
            "status": "5",
            "type": "LV"
          },
          {
            "area": "YO62 5JA",
            "lat": 54.23135,
            "lon": -1.006013,
            "reference": "INCD-815735-A",
            "status": "5",
            "type": "LV"
          },
          {
            "area": "YO62 5JF",
            "lat": 54.230475,
            "lon": -1.005682,
            "reference": "INCD-815735-A",
            "status": "5",
            "type": "LV"
          }
        ],
        "startedAt": "2026-09-19T09:59:00.000Z",
        "restoreAt": "2026-09-19T19:00:00.000Z",
        "restoreAtText": "",
        "updatedAt": "2026-09-19T13:25:27.000Z",
        "officialUrl": "https://www.northernpowergrid.com/power-cuts-map",
        "locationQuality": "centralised_area",
        "rawRecordCount": 4,
        "coordinateSpreadKm": 26.418
      }
    },
    {
      "type": "Feature",
      "id": "npg:current:incd-815725-a",
      "geometry": {
        "type": "Point",
        "coordinates": [
          -1.05791,
          53.8346
        ]
      },
      "properties": {
        "providerId": "npg",
        "provider": "Northern Powergrid",
        "feedIds": [
          "live"
        ],
        "reference": "INCD-815725-A",
        "category": "current",
        "status": "5",
        "type": "LV",
        "area": "Yorkshire",
        "areas": [
          "Yorkshire"
        ],
        "postcodes": [
          "YO19 6TE"
        ],
        "groupedLocations": [
          {
            "area": "YO19 6TE",
            "lat": 53.834601,
            "lon": -1.057911,
            "reference": "INCD-815725-A",
            "status": "5",
            "type": "LV"
          }
        ],
        "startedAt": "2026-09-19T09:33:00.000Z",
        "restoreAt": null,
        "restoreAtText": "",
        "updatedAt": "2026-09-19T13:25:27.000Z",
        "officialUrl": "https://www.northernpowergrid.com/power-cuts-map",
        "locationQuality": "centralised_area",
        "rawRecordCount": 1,
        "coordinateSpreadKm": 0
      }
    },
    {
      "type": "Feature",
      "id": "npg:current:incd-71828-b",
      "geometry": {
        "type": "Point",
        "coordinates": [
          -1.330305,
          53.796549999999996
        ]
      },
      "properties": {
        "providerId": "npg",
        "provider": "Northern Powergrid",
        "feedIds": [
          "live"
        ],
        "reference": "INCD-71828-B",
        "category": "current",
        "status": "6",
        "type": "LV",
        "area": "Yorkshire",
        "areas": [
          "Yorkshire"
        ],
        "postcodes": [
          "LS25 4AQ",
          "LS25 4AG"
        ],
        "groupedLocations": [
          {
            "area": "LS25 4AQ",
            "lat": 53.796589,
            "lon": -1.331334,
            "reference": "INCD-71828-B",
            "status": "6",
            "type": "LV"
          },
          {
            "area": "LS25 4AG",
            "lat": 53.796198,
            "lon": -1.328865,
            "reference": "INCD-71828-B",
            "status": "6",
            "type": "LV"
          }
        ],
        "startedAt": "2026-09-19T09:37:00.000Z",
        "restoreAt": "2026-09-19T12:45:00.000Z",
        "restoreAtText": "",
        "updatedAt": "2026-09-19T10:40:11.000Z",
        "officialUrl": "https://www.northernpowergrid.com/power-cuts-map",
        "locationQuality": "centralised_area",
        "rawRecordCount": 2,
        "coordinateSpreadKm": 0.084
      }
    }
  ]
}
