{
  "type": "FeatureCollection",
  "provider": "ssen",
  "generatedAt": "2026-09-19T12:31:47.678Z",
  "stale": false,
  "features": [
    {
      "type": "Feature",
      "id": "ssen:current:tz8004",
      "geometry": {
        "type": "Point",
        "coordinates": [
          -1.3409467,
          50.919523
        ]
      },
      "properties": {
        "providerId": "ssen",
        "provider": "SSEN Distribution",
        "feedIds": [
          "live"
        ],
        "reference": "TZ8004",
        "category": "current",
        "status": "current",
        "type": "LV",
        "area": "Published incident location",
        "areas": [
          "Published incident location"
        ],
        "postcodes": [
          "SO18 5FT",
          "SO18 5FW",
          "SO18 5GB"
        ],
        "groupedLocations": [
          {
            "area": "SO18 5FT",
            "lat": 50.919514,
            "lon": -1.340937,
            "reference": "TZ8004",
            "status": "current",
            "type": "LV"
          },
          {
            "area": "SO18 5FW",
            "lat": 50.92075,
            "lon": -1.340094,
            "reference": "TZ8004",
            "status": "current",
            "type": "LV"
          },
          {
            "area": "SO18 5GB",
            "lat": 50.922045,
            "lon": -1.340175,
            "reference": "TZ8004",
            "status": "current",
            "type": "LV"
          }
        ],
        "startedAt": null,
        "restoreAt": null,
        "restoreAtText": "",
        "updatedAt": null,
        "officialUrl": "https://powertrack.ssen.co.uk/powertrack",
        "locationQuality": "published_point",
        "rawRecordCount": 3,
        "coordinateSpreadKm": 0.145
      }
    },
    {
      "type": "Feature",
      "id": "ssen:current:tz7987",
      "geometry": {
        "type": "Point",
        "coordinates": [
          -1.2271193,
          51.7267849
        ]
      },
      "properties": {
        "providerId": "ssen",
        "provider": "SSEN Distribution",
        "feedIds": [
          "live"
        ],
        "reference": "TZ7987",
        "category": "current",
        "status": "current",
        "type": "LV",
        "area": "Published incident location",
        "areas": [
          "Published incident location"
        ],
        "postcodes": [
          "OX4 4SL",
          "OX4 4SN"
        ],
        "groupedLocations": [
          {
            "area": "OX4 4SL",
            "lat": 51.72679,
            "lon": -1.227101,
            "reference": "TZ7987",
            "status": "current",
            "type": "LV"
          },
          {
            "area": "OX4 4SN",
            "lat": 51.727456,
            "lon": -1.225844,
            "reference": "TZ7987",
            "status": "current",
            "type": "LV"
          }
        ],
        "startedAt": null,
        "restoreAt": null,
        "restoreAtText": "",
        "updatedAt": null,
        "officialUrl": "https://powertrack.ssen.co.uk/powertrack",
        "locationQuality": "published_point",
        "rawRecordCount": 2,
        "coordinateSpreadKm": 0.057
      }
    },
    {
      "type": "Feature",
      "id": "ssen:current:tz7786",
      "geometry": {
        "type": "Point",
        "coordinates": [
          -1.2286523,
          51.9087582
        ]
      },
      "properties": {
        "providerId": "ssen",
        "provider": "SSEN Distribution",
        "feedIds": [
          "live"
        ],
        "reference": "TZ7786",
        "category": "current",
        "status": "current",
        "type": "LV",
        "area": "Published incident location",
        "areas": [
          "Published incident location"
        ],
        "postcodes": [
          "OX25 4AF",
          "OX25 4AQ",
          "OX25 4AW",
          "OX25 4GX",
          "OX25 4JG"
        ],
        "groupedLocations": [
          {
            "area": "OX25 4AF",
            "lat": 51.908322,
            "lon": -1.229383,
            "reference": "TZ7786",
            "status": "current",
            "type": "LV"
          },
          {
            "area": "OX25 4AQ",
            "lat": 51.906147,
            "lon": -1.237793,
            "reference": "TZ7786",
            "status": "current",
            "type": "LV"
          },
          {
            "area": "OX25 4AW",
            "lat": 51.907844,
            "lon": -1.227763,
            "reference": "TZ7786",
            "status": "current",
            "type": "LV"
          },
          {
            "area": "OX25 4GX",
            "lat": 51.908134,
            "lon": -1.228223,
            "reference": "TZ7786",
            "status": "current",
            "type": "LV"
          },
          {
            "area": "OX25 4JG",
            "lat": 51.908766,
            "lon": -1.228634,
            "reference": "TZ7786",
            "status": "current",
            "type": "LV"
          }
        ],
        "startedAt": null,
        "restoreAt": null,
        "restoreAtText": "",
        "updatedAt": null,
        "officialUrl": "https://powertrack.ssen.co.uk/powertrack",
        "locationQuality": "published_point",
        "rawRecordCount": 5,
        "coordinateSpreadKm": 0.544
      }
    },
    {
      "type": "Feature",
      "id": "ssen:current:tz7836",
      "geometry": {
        "type": "Point",
        "coordinates": [
          -1.6190788,
          51.0404846
        ]
      },
      "properties": {
        "providerId": "ssen",
        "provider": "SSEN Distribution",
        "feedIds": [
          "live"
        ],
        "reference": "TZ7836",
        "category": "current",
        "status": "current",
        "type": "HV",
        "area": "Published incident location",
        "areas": [
          "Published incident location"
        ],
        "postcodes": [
          "SP5 1GZ",
          "SP5 1HA",
          "SP5 1HB",
          "SP5 1HU",
          "SP5 1JL",
          "SP5 1JQ",
          "SP5 1NF",
          "SP5 1PA",
          "SP5 3RT",
          "SP5 3SB"
        ],
        "groupedLocations": [
          {
            "area": "SP5 1GZ",
            "lat": 51.043218,
            "lon": -1.618117,
            "reference": "TZ7836",
            "status": "current",
            "type": "HV"
          },
          {
            "area": "SP5 1HA",
            "lat": 51.040479,
            "lon": -1.619067,
            "reference": "TZ7836",
            "status": "current",
            "type": "HV"
          },
          {
            "area": "SP5 1HB",
            "lat": 51.039498,
            "lon": -1.613484,
            "reference": "TZ7836",
            "status": "current",
            "type": "HV"
          },
          {
            "area": "SP5 1HU",
            "lat": 51.03951,
            "lon": -1.619859,
            "reference": "TZ7836",
            "status": "current",
            "type": "HV"
          },
          {
            "area": "SP5 1JL",
            "lat": 51.045603,
            "lon": -1.632591,
            "reference": "TZ7836",
            "status": "current",
            "type": "HV"
          },
          {
            "area": "SP5 1JQ",
            "lat": 51.044294,
            "lon": -1.634057,
            "reference": "TZ7836",
            "status": "current",
            "type": "HV"
          },
          {
            "area": "SP5 1NF",
            "lat": 51.070083,
            "lon": -1.608905,
            "reference": "TZ7836",
            "status": "current",
            "type": "HV"
          },
          {
            "area": "SP5 1PA",
            "lat": 51.052675,
            "lon": -1.603844,
            "reference": "TZ7836",
            "status": "current",
            "type": "HV"
          },
          {
            "area": "SP5 3RT",
            "lat": 51.04949,
            "lon": -1.679568,
            "reference": "TZ7836",
            "status": "current",
            "type": "HV"
          },
          {
            "area": "SP5 3SB",
            "lat": 51.045422,
            "lon": -1.68125,
            "reference": "TZ7836",
            "status": "current",
            "type": "HV"
          }
        ],
        "startedAt": null,
        "restoreAt": null,
        "restoreAtText": "",
        "updatedAt": null,
        "officialUrl": "https://powertrack.ssen.co.uk/powertrack",
        "locationQuality": "published_point",
        "rawRecordCount": 10,
        "coordinateSpreadKm": 3.512
      }
    },
    {
      "type": "Feature",
      "id": "ssen:current:tz7806",
      "geometry": {
        "type": "Point",
        "coordinates": [
          -0.9193718000000001,
          51.4288011
        ]
      },
      "properties": {
        "providerId": "ssen",
        "provider": "SSEN Distribution",
        "feedIds": [
          "live"
        ],
        "reference": "TZ7806",
        "category": "current",
        "status": "current",
        "type": "LV",
        "area": "Published incident location",
        "areas": [
          "Published incident location"
        ],
        "postcodes": [
          "RG6 3DZ",
          "RG6 4ER",
          "RG6 5UP"
        ],
        "groupedLocations": [
          {
            "area": "RG6 3DZ",
            "lat": 51.430801,
            "lon": -0.91968,
            "reference": "TZ7806",
            "status": "current",
            "type": "LV"
          },
          {
            "area": "RG6 4ER",
            "lat": 51.428802,
            "lon": -0.919353,
            "reference": "TZ7806",
            "status": "current",
            "type": "LV"
          },
          {
            "area": "RG6 5UP",
            "lat": 51.429157,
            "lon": -0.921819,
            "reference": "TZ7806",
            "status": "current",
            "type": "LV"
          }
        ],
        "startedAt": null,
        "restoreAt": null,
        "restoreAtText": "",
        "updatedAt": null,
        "officialUrl": "https://powertrack.ssen.co.uk/powertrack",
        "locationQuality": "published_point",
        "rawRecordCount": 3,
        "coordinateSpreadKm": 0.141
      }
    },
    {
      "type": "Feature",
      "id": "ssen:current:254484",
      "geometry": {
        "type": "Point",
        "coordinates": [
          -2.4953273,
          56.7369807
        ]
      },
      "properties": {
        "providerId": "ssen",
        "provider": "SSEN Distribution",
        "feedIds": [
          "live"
        ],
        "reference": "254484",
        "category": "current",
        "status": "current",
        "type": "PSI",
        "area": "Published incident location",
        "areas": [
          "Published incident location"
        ],
        "postcodes": [
          "DD10 9EG",
          "DD10 9JS",
          "DD10 9LE",
          "DD10 9LF",
          "DD10 9LG",
          "DD10 9LQ",
          "DD10 9LS",
          "DD10 9LT",
          "DD10 9LW",
          "DD10 9LX",
          "DD10 9LY"
        ],
        "groupedLocations": [
          {
            "area": "DD10 9EG",
            "lat": 56.73697,
            "lon": -2.495333,
            "reference": "254484",
            "status": "current",
            "type": "PSI"
          },
          {
            "area": "DD10 9JS",
            "lat": 56.74573,
            "lon": -2.504048,
            "reference": "254484",
            "status": "current",
            "type": "PSI"
          },
          {
            "area": "DD10 9LE",
            "lat": 56.721812,
            "lon": -2.482063,
            "reference": "254484",
            "status": "current",
            "type": "PSI"
          },
          {
            "area": "DD10 9LF",
            "lat": 56.729606,
            "lon": -2.505974,
            "reference": "254484",
            "status": "current",
            "type": "PSI"
          },
          {
            "area": "DD10 9LG",
            "lat": 56.738223,
            "lon": -2.522812,
            "reference": "254484",
            "status": "current",
            "type": "PSI"
          },
          {
            "area": "DD10 9LQ",
            "lat": 56.725684,
            "lon": -2.537149,
            "reference": "254484",
            "status": "current",
            "type": "PSI"
          },
          {
            "area": "DD10 9LS",
            "lat": 56.721887,
            "lon": -2.483567,
            "reference": "254484",
            "status": "current",
            "type": "PSI"
          },
          {
            "area": "DD10 9LT",
            "lat": 56.721402,
            "lon": -2.483659,
            "reference": "254484",
            "status": "current",
            "type": "PSI"
          },
          {
            "area": "DD10 9LW",
            "lat": 56.73832,
            "lon": -2.550537,
            "reference": "254484",
            "status": "current",
            "type": "PSI"
          },
          {
            "area": "DD10 9LX",
            "lat": 56.721663,
            "lon": -2.478826,
            "reference": "254484",
            "status": "current",
            "type": "PSI"
          },
          {
            "area": "DD10 9LY",
            "lat": 56.721407,
            "lon": -2.479982,
            "reference": "254484",
            "status": "current",
            "type": "PSI"
          }
        ],
        "startedAt": null,
        "restoreAt": null,
        "restoreAtText": "",
        "updatedAt": null,
        "officialUrl": "https://powertrack.ssen.co.uk/powertrack",
        "locationQuality": "published_point",
        "rawRecordCount": 11,
        "coordinateSpreadKm": 3.114
      }
    },
    {
      "type": "Feature",
      "id": "ssen:current:254671",
      "geometry": {
        "type": "Point",
        "coordinates": [
          -1.3874834,
          51.3925632
        ]
      },
      "properties": {
        "providerId": "ssen",
        "provider": "SSEN Distribution",
        "feedIds": [
          "live"
        ],
        "reference": "254671",
        "category": "current",
        "status": "current",
        "type": "PSI",
        "area": "Published incident location",
        "areas": [
          "Published incident location"
        ],
        "postcodes": [
          "RG20 0HE"
        ],
        "groupedLocations": [
          {
            "area": "RG20 0HE",
            "lat": 51.392561,
            "lon": -1.387466,
            "reference": "254671",
            "status": "current",
            "type": "PSI"
          }
        ],
        "startedAt": null,
        "restoreAt": null,
        "restoreAtText": "",
        "updatedAt": null,
        "officialUrl": "https://powertrack.ssen.co.uk/powertrack",
        "locationQuality": "published_point",
        "rawRecordCount": 1,
        "coordinateSpreadKm": 0
      }
    },
    {
      "type": "Feature",
      "id": "ssen:current:254704",
      "geometry": {
        "type": "Point",
        "coordinates": [
          -3.871118799999999,
          57.5777417
        ]
      },
      "properties": {
        "providerId": "ssen",
        "provider": "SSEN Distribution",
        "feedIds": [
          "live"
        ],
        "reference": "254704",
        "category": "current",
        "status": "current",
        "type": "PSI",
        "area": "Published incident location",
        "areas": [
          "Published incident location"
        ],
        "postcodes": [
          "IV12 5ER",
          "IV13 7AA",
          "IV13 7XW",
          "IV13 7XX",
          "IV13 7XY",
          "IV13 7XZ",
          "IV13 7YA",
          "IV13 7YB",
          "IV13 7YN",
          "IV13 7YP",
          "IV13 7YT",
          "IV13 7YW",
          "IV13 7ZB"
        ],
        "groupedLocations": [
          {
            "area": "IV12 5ER",
            "lat": 57.577726,
            "lon": -3.871119,
            "reference": "254704",
            "status": "current",
            "type": "PSI"
          },
          {
            "area": "IV13 7AA",
            "lat": 57.335771,
            "lon": -3.991148,
            "reference": "254704",
            "status": "current",
            "type": "PSI"
          },
          {
            "area": "IV13 7XW",
            "lat": 57.333428,
            "lon": -3.993264,
            "reference": "254704",
            "status": "current",
            "type": "PSI"
          },
          {
            "area": "IV13 7XX",
            "lat": 57.344251,
            "lon": -3.978711,
            "reference": "254704",
            "status": "current",
            "type": "PSI"
          },
          {
            "area": "IV13 7XY",
            "lat": 57.335448,
            "lon": -3.96998,
            "reference": "254704",
            "status": "current",
            "type": "PSI"
          },
          {
            "area": "IV13 7XZ",
            "lat": 57.307473,
            "lon": -3.996491,
            "reference": "254704",
            "status": "current",
            "type": "PSI"
          },
          {
            "area": "IV13 7YA",
            "lat": 57.30469,
            "lon": -4.020544,
            "reference": "254704",
            "status": "current",
            "type": "PSI"
          },
          {
            "area": "IV13 7YB",
            "lat": 57.265303,
            "lon": -4.087339,
            "reference": "254704",
            "status": "current",
            "type": "PSI"
          },
          {
            "area": "IV13 7YN",
            "lat": 57.331817,
            "lon": -3.989489,
            "reference": "254704",
            "status": "current",
            "type": "PSI"
          },
          {
            "area": "IV13 7YP",
            "lat": 57.341388,
            "lon": -3.997318,
            "reference": "254704",
            "status": "current",
            "type": "PSI"
          },
          {
            "area": "IV13 7YT",
            "lat": 57.34144,
            "lon": -4.010366,
            "reference": "254704",
            "status": "current",
            "type": "PSI"
          },
          {
            "area": "IV13 7YW",
            "lat": 57.3336,
            "lon": -3.992061,
            "reference": "254704",
            "status": "current",
            "type": "PSI"
          },
          {
            "area": "IV13 7ZB",
            "lat": 57.330962,
            "lon": -3.991287,
            "reference": "254704",
            "status": "current",
            "type": "PSI"
          }
        ],
        "startedAt": null,
        "restoreAt": null,
        "restoreAtText": "",
        "updatedAt": null,
        "officialUrl": "https://powertrack.ssen.co.uk/powertrack",
        "locationQuality": "published_point",
        "rawRecordCount": 13,
        "coordinateSpreadKm": 26.874
      }
    },
    {
      "type": "Feature",
      "id": "ssen:current:254505",
      "geometry": {
        "type": "Point",
        "coordinates": [
          -1.4912852,
          50.9761172
        ]
      },
      "properties": {
        "providerId": "ssen",
        "provider": "SSEN Distribution",
        "feedIds": [
          "live"
        ],
        "reference": "254505",
        "category": "current",
        "status": "current",
        "type": "PSI",
        "area": "Published incident location",
        "areas": [
          "Published incident location"
        ],
        "postcodes": [
          "SO51 9LB",
          "SO51 9LE",
          "SO51 9LF",
          "SO51 9LG",
          "SO51 9LH",
          "SO51 9NJ"
        ],
        "groupedLocations": [
          {
            "area": "SO51 9LB",
            "lat": 50.97611,
            "lon": -1.491276,
            "reference": "254505",
            "status": "current",
            "type": "PSI"
          },
          {
            "area": "SO51 9LE",
            "lat": 50.962569,
            "lon": -1.491709,
            "reference": "254505",
            "status": "current",
            "type": "PSI"
          },
          {
            "area": "SO51 9LF",
            "lat": 50.960722,
            "lon": -1.495075,
            "reference": "254505",
            "status": "current",
            "type": "PSI"
          },
          {
            "area": "SO51 9LG",
            "lat": 50.958607,
            "lon": -1.488534,
            "reference": "254505",
            "status": "current",
            "type": "PSI"
          },
          {
            "area": "SO51 9LH",
            "lat": 50.958211,
            "lon": -1.486246,
            "reference": "254505",
            "status": "current",
            "type": "PSI"
          },
          {
            "area": "SO51 9NJ",
            "lat": 50.970859,
            "lon": -1.479299,
            "reference": "254505",
            "status": "current",
            "type": "PSI"
          }
        ],
        "startedAt": null,
        "restoreAt": null,
        "restoreAtText": "",
        "updatedAt": null,
        "officialUrl": "https://powertrack.ssen.co.uk/powertrack",
        "locationQuality": "published_point",
        "rawRecordCount": 6,
        "coordinateSpreadKm": 1.302
      }
    },
    {
      "type": "Feature",
      "id": "ssen:current:tz7841",
      "geometry": {
        "type": "Point",
        "coordinates": [
          -2.2606079,
          51.0148528
        ]
      },
      "properties": {
        "providerId": "ssen",
        "provider": "SSEN Distribution",
        "feedIds": [
          "live"
        ],
        "reference": "TZ7841",
        "category": "current",
        "status": "current",
        "type": "HV",
        "area": "Published incident location",
        "areas": [
          "Published incident location"
        ],
        "postcodes": [
          "SP8 5JR",
          "SP8 5JW",
          "SP8 5ND"
        ],
        "groupedLocations": [
          {
            "area": "SP8 5JR",
            "lat": 51.015364,
            "lon": -2.27787,
            "reference": "TZ7841",
            "status": "current",
            "type": "HV"
          },
          {
            "area": "SP8 5JW",
            "lat": 51.014846,
            "lon": -2.260604,
            "reference": "TZ7841",
            "status": "current",
            "type": "HV"
          },
          {
            "area": "SP8 5ND",
            "lat": 51.010453,
            "lon": -2.254521,
            "reference": "TZ7841",
            "status": "current",
            "type": "HV"
          }
        ],
        "startedAt": null,
        "restoreAt": null,
        "restoreAtText": "",
        "updatedAt": null,
        "officialUrl": "https://powertrack.ssen.co.uk/powertrack",
        "locationQuality": "published_point",
        "rawRecordCount": 3,
        "coordinateSpreadKm": 0.968
      }
    },
    {
      "type": "Feature",
      "id": "ssen:current:tz7546",
      "geometry": {
        "type": "Point",
        "coordinates": [
          -2.6544207,
          50.8318508
        ]
      },
      "properties": {
        "providerId": "ssen",
        "provider": "SSEN Distribution",
        "feedIds": [
          "live"
        ],
        "reference": "TZ7546",
        "category": "current",
        "status": "current",
        "type": "HV",
        "area": "Published incident location",
        "areas": [
          "Published incident location"
        ],
        "postcodes": [
          "DT2 0NN",
          "DT2 0NW",
          "DT2 0PL",
          "DT2 0PP",
          "DT2 0PY"
        ],
        "groupedLocations": [
          {
            "area": "DT2 0NN",
            "lat": 50.831842,
            "lon": -2.654421,
            "reference": "TZ7546",
            "status": "current",
            "type": "HV"
          },
          {
            "area": "DT2 0NW",
            "lat": 50.830213,
            "lon": -2.662478,
            "reference": "TZ7546",
            "status": "current",
            "type": "HV"
          },
          {
            "area": "DT2 0PL",
            "lat": 50.824173,
            "lon": -2.634565,
            "reference": "TZ7546",
            "status": "current",
            "type": "HV"
          },
          {
            "area": "DT2 0PP",
            "lat": 50.822256,
            "lon": -2.63312,
            "reference": "TZ7546",
            "status": "current",
            "type": "HV"
          },
          {
            "area": "DT2 0PY",
            "lat": 50.843516,
            "lon": -2.652483,
            "reference": "TZ7546",
            "status": "current",
            "type": "HV"
          }
        ],
        "startedAt": null,
        "restoreAt": null,
        "restoreAtText": "",
        "updatedAt": null,
        "officialUrl": "https://powertrack.ssen.co.uk/powertrack",
        "locationQuality": "published_point",
        "rawRecordCount": 5,
        "coordinateSpreadKm": 1.501
      }
    },
    {
      "type": "Feature",
      "id": "ssen:current:tz7068",
      "geometry": {
        "type": "Point",
        "coordinates": [
          -1.1311041,
          50.91049779999999
        ]
      },
      "properties": {
        "providerId": "ssen",
        "provider": "SSEN Distribution",
        "feedIds": [
          "live"
        ],
        "reference": "TZ7068",
        "category": "current",
        "status": "current",
        "type": "LV",
        "area": "Published incident location",
        "areas": [
          "Published incident location"
        ],
        "postcodes": [
          "PO17 6LJ"
        ],
        "groupedLocations": [
          {
            "area": "PO17 6LJ",
            "lat": 50.910491,
            "lon": -1.13109,
            "reference": "TZ7068",
            "status": "current",
            "type": "LV"
          }
        ],
        "startedAt": null,
        "restoreAt": null,
        "restoreAtText": "",
        "updatedAt": null,
        "officialUrl": "https://powertrack.ssen.co.uk/powertrack",
        "locationQuality": "published_point",
        "rawRecordCount": 1,
        "coordinateSpreadKm": 0
      }
    },
    {
      "type": "Feature",
      "id": "ssen:current:254566",
      "geometry": {
        "type": "Point",
        "coordinates": [
          -1.140409,
          51.0847145
        ]
      },
      "properties": {
        "providerId": "ssen",
        "provider": "SSEN Distribution",
        "feedIds": [
          "live"
        ],
        "reference": "254566",
        "category": "current",
        "status": "current",
        "type": "PSI",
        "area": "Published incident location",
        "areas": [
          "Published incident location"
        ],
        "postcodes": [
          "SO24 0AA"
        ],
        "groupedLocations": [
          {
            "area": "SO24 0AA",
            "lat": 51.084709,
            "lon": -1.140394,
            "reference": "254566",
            "status": "current",
            "type": "PSI"
          }
        ],
        "startedAt": null,
        "restoreAt": null,
        "restoreAtText": "",
        "updatedAt": null,
        "officialUrl": "https://powertrack.ssen.co.uk/powertrack",
        "locationQuality": "published_point",
        "rawRecordCount": 1,
        "coordinateSpreadKm": 0
      }
    }
  ]
}
